Region,RegionCode,City,Link,PostalCode
Bayern,BY,Abenberg,/wiki/Abenberg,91183
Bayern,BY,Abensberg,/wiki/Abensberg,93326
Bayern,BY,Aichach,/wiki/Aichach,86551
Bayern,BY,Altdorf bei Nürnberg,/wiki/Altdorf_bei_N%C3%BCrnberg,90518
Bayern,BY,Altötting,/wiki/Alt%C3%B6tting,84503
Bayern,BY,Alzenau,/wiki/Alzenau,63755
Bayern,BY,Amberg,/wiki/Amberg,92224
Bayern,BY,Amorbach,/wiki/Amorbach,63916
Bayern,BY,Ansbach,/wiki/Ansbach,91522
Bayern,BY,Arnstein,/wiki/Arnstein_(Unterfranken),97450
Bayern,BY,Arzberg,/wiki/Arzberg_(Oberfranken),95659
Bayern,BY,Aschaffenburg,/wiki/Aschaffenburg,"63739, 63741, 63743"
Bayern,BY,Aub,/wiki/Aub,97239
Bayern,BY,Auerbach in der Oberpfalz,/wiki/Auerbach_in_der_Oberpfalz,91275
Bayern,BY,Augsburg,/wiki/Augsburg,86150–86199
Bayern,BY,Bad Aibling,/wiki/Bad_Aibling,83043
Bayern,BY,Bad Berneck im Fichtelgebirge,/wiki/Bad_Berneck_im_Fichtelgebirge,95460
Bayern,BY,Bad Brückenau,/wiki/Bad_Br%C3%BCckenau,97769
Bayern,BY,Bad Griesbach im Rottal,/wiki/Bad_Griesbach_im_Rottal,94086
Bayern,BY,Bad Kissingen,/wiki/Bad_Kissingen,97688
Bayern,BY,Bad Königshofen im Grabfeld,/wiki/Bad_K%C3%B6nigshofen_im_Grabfeld,97631
Bayern,BY,Bad Kötzting,/wiki/Bad_K%C3%B6tzting,93444
Bayern,BY,Bad Neustadt an der Saale,/wiki/Bad_Neustadt_an_der_Saale,97616
Bayern,BY,Bad Reichenhall,/wiki/Bad_Reichenhall,83435
Bayern,BY,Bad Rodach,/wiki/Bad_Rodach,96476
Bayern,BY,Bad Staffelstein,/wiki/Bad_Staffelstein,96231
Bayern,BY,Bad Tölz,/wiki/Bad_T%C3%B6lz,83646
Bayern,BY,Bad Windsheim,/wiki/Bad_Windsheim,91438
Bayern,BY,Bad Wörishofen,/wiki/Bad_W%C3%B6rishofen,86825
Bayern,BY,Baiersdorf,/wiki/Baiersdorf,91083
Bayern,BY,Bamberg,/wiki/Bamberg,"96047, 96049, 96050, 96052"
Bayern,BY,Bärnau,/wiki/B%C3%A4rnau,95671
Bayern,BY,Baunach,/wiki/Baunach,96148
Bayern,BY,Bayreuth,/wiki/Bayreuth,"95444, 95445, 95447, 95448"
Bayern,BY,Beilngries,/wiki/Beilngries,"92339, 92345"
Bayern,BY,Berching,/wiki/Berching,92334
Bayern,BY,Betzenstein,/wiki/Betzenstein,91282
Bayern,BY,Bischofsheim in der Rhön,/wiki/Bischofsheim_in_der_Rh%C3%B6n,97653
Bayern,BY,Bobingen,/wiki/Bobingen,86399
Bayern,BY,Bogen,/wiki/Bogen_(Stadt),94327
Bayern,BY,Buchloe,/wiki/Buchloe,86807
Bayern,BY,Burgau,/wiki/Burgau,89331
Bayern,BY,Burgbernheim,/wiki/Burgbernheim,91593
Bayern,BY,Burghausen,/wiki/Burghausen,84489
Bayern,BY,Burgkunstadt,/wiki/Burgkunstadt,96224
Bayern,BY,Burglengenfeld,/wiki/Burglengenfeld,93133
Bayern,BY,Cham,/wiki/Cham_(Oberpfalz),93413
Bayern,BY,Coburg,/wiki/Coburg,96450
Bayern,BY,Creußen,/wiki/Creu%C3%9Fen,95473
Bayern,BY,Dachau,/wiki/Dachau,85221
Bayern,BY,Deggendorf,/wiki/Deggendorf,"94469,"
Bayern,BY,Dettelbach,/wiki/Dettelbach,"97335, 97337"
Bayern,BY,Dietfurt an der Altmühl,/wiki/Dietfurt_an_der_Altm%C3%BChl,92345
Bayern,BY,Dillingen an der Donau,/wiki/Dillingen_an_der_Donau,89407
Bayern,BY,Dingolfing,/wiki/Dingolfing,84130
Bayern,BY,Dinkelsbühl,/wiki/Dinkelsb%C3%BChl,91550
Bayern,BY,Donauwörth,/wiki/Donauw%C3%B6rth,86609
Bayern,BY,Dorfen,/wiki/Dorfen,"84405, 84428"
Bayern,BY,Ebermannstadt,/wiki/Ebermannstadt,91320
Bayern,BY,Ebern,/wiki/Ebern,96106
Bayern,BY,Ebersberg,/wiki/Ebersberg,85560
Bayern,BY,Eggenfelden,/wiki/Eggenfelden,84307
Bayern,BY,Eibelstadt,/wiki/Eibelstadt,97246
Bayern,BY,Eichstätt,/wiki/Eichst%C3%A4tt,85072
Bayern,BY,Ellingen,/wiki/Ellingen,91792
Bayern,BY,Eltmann,/wiki/Eltmann,97483
Bayern,BY,Erbendorf,/wiki/Erbendorf,"92681, 92690"
Bayern,BY,Erding,/wiki/Erding,85435
Bayern,BY,Erlangen,/wiki/Erlangen,"91052, 91054, 91056, 91058"
Bayern,BY,Erlenbach am Main,/wiki/Erlenbach_am_Main,63906
Bayern,BY,Eschenbach in der Oberpfalz,/wiki/Eschenbach_in_der_Oberpfalz,92676
Bayern,BY,Feuchtwangen,/wiki/Feuchtwangen,91555
Bayern,BY,Fladungen,/wiki/Fladungen,97650
Bayern,BY,Forchheim,/wiki/Forchheim,91301
Bayern,BY,Freilassing,/wiki/Freilassing,83395
Bayern,BY,Freising,/wiki/Freising,"85354, 85356"
Bayern,BY,Freystadt,/wiki/Freystadt,92342
Bayern,BY,Freyung,/wiki/Freyung,94078
Bayern,BY,Friedberg,/wiki/Friedberg_(Bayern),86316
Bayern,BY,Fürstenfeldbruck,/wiki/F%C3%BCrstenfeldbruck,82256
Bayern,BY,Fürth,/wiki/F%C3%BCrth,90762–90768
Bayern,BY,Furth im Wald,/wiki/Furth_im_Wald,93437
Bayern,BY,Füssen,/wiki/F%C3%BCssen,87629
Bayern,BY,Garching bei München,/wiki/Garching_bei_M%C3%BCnchen,85748
Bayern,BY,Gefrees,/wiki/Gefrees,"95482, 95236"
Bayern,BY,Geiselhöring,/wiki/Geiselh%C3%B6ring,94333
Bayern,BY,Geisenfeld,/wiki/Geisenfeld,85290
Bayern,BY,Gemünden am Main,/wiki/Gem%C3%BCnden_am_Main,97737
Bayern,BY,Geretsried,/wiki/Geretsried,82538
Bayern,BY,Germering,/wiki/Germering,82110
Bayern,BY,Gerolzhofen,/wiki/Gerolzhofen,97447
Bayern,BY,Gersthofen,/wiki/Gersthofen,86368
Bayern,BY,Goldkronach,/wiki/Goldkronach,95497
Bayern,BY,Grafenau,/wiki/Grafenau_(Niederbayern),"94481, 94568"
Bayern,BY,Gräfenberg,/wiki/Gr%C3%A4fenberg,91322
Bayern,BY,Grafenwöhr,/wiki/Grafenw%C3%B6hr,92655
Bayern,BY,Grafing bei München,/wiki/Grafing_bei_M%C3%BCnchen,85567
Bayern,BY,Greding,/wiki/Greding,91171
Bayern,BY,Gundelfingen an der Donau,/wiki/Gundelfingen_an_der_Donau,89423
Bayern,BY,Günzburg,/wiki/G%C3%BCnzburg,89312
Bayern,BY,Gunzenhausen,/wiki/Gunzenhausen,91710
Bayern,BY,Hallstadt,/wiki/Hallstadt,96103
Bayern,BY,Hammelburg,/wiki/Hammelburg,97762
Bayern,BY,Harburg,/wiki/Harburg_(Schwaben),86655
Bayern,BY,Haßfurt,/wiki/Ha%C3%9Ffurt,97437
Bayern,BY,Hauzenberg,/wiki/Hauzenberg,94051
Bayern,BY,Heideck,/wiki/Heideck,91180
Bayern,BY,Heilsbronn,/wiki/Heilsbronn,91560
Bayern,BY,Helmbrechts,/wiki/Helmbrechts,95233
Bayern,BY,Hemau,/wiki/Hemau,93155
Bayern,BY,Herrieden,/wiki/Herrieden,91567
Bayern,BY,Hersbruck,/wiki/Hersbruck,91217
Bayern,BY,Herzogenaurach,/wiki/Herzogenaurach,91074
Bayern,BY,Hilpoltstein,/wiki/Hilpoltstein,91161
Bayern,BY,Hirschau,/wiki/Hirschau,92242
Bayern,BY,Höchstadt an der Aisch,/wiki/H%C3%B6chstadt_an_der_Aisch,91315
Bayern,BY,Höchstädt an der Donau,/wiki/H%C3%B6chst%C3%A4dt_an_der_Donau,89420
Bayern,BY,Hof,/wiki/Hof_(Saale),"95028, 95030, 95032"
Bayern,BY,Hofheim in Unterfranken,/wiki/Hofheim_in_Unterfranken,97461
Bayern,BY,Hohenberg an der Eger,/wiki/Hohenberg_an_der_Eger,95691
Bayern,BY,Hollfeld,/wiki/Hollfeld,96142
Bayern,BY,Ichenhausen,/wiki/Ichenhausen,89335
Bayern,BY,Illertissen,/wiki/Illertissen,89257
Bayern,BY,Immenstadt im Allgäu,/wiki/Immenstadt_im_Allg%C3%A4u,87509
Bayern,BY,Ingolstadt,/wiki/Ingolstadt,85049–85057
Bayern,BY,Iphofen,/wiki/Iphofen,97346
Bayern,BY,Karlstadt,/wiki/Karlstadt,97753
Bayern,BY,Kaufbeuren,/wiki/Kaufbeuren,87600
Bayern,BY,Kelheim,/wiki/Kelheim,93309
Bayern,BY,Kemnath,/wiki/Kemnath,95478
Bayern,BY,Kempten,/wiki/Kempten_(Allg%C3%A4u),"87435, 87437, 87439"
Bayern,BY,Kirchenlamitz,/wiki/Kirchenlamitz,"95158, 95100"
Bayern,BY,Kitzingen,/wiki/Kitzingen,97318
Bayern,BY,Klingenberg am Main,/wiki/Klingenberg_am_Main,63911
Bayern,BY,Kolbermoor,/wiki/Kolbermoor,83059
Bayern,BY,Königsberg in Bayern,/wiki/K%C3%B6nigsberg_in_Bayern,97486
Bayern,BY,Königsbrunn,/wiki/K%C3%B6nigsbrunn,86343
Bayern,BY,Kronach,/wiki/Kronach,96317
Bayern,BY,Krumbach,/wiki/Krumbach_(Schwaben),86381
Bayern,BY,Kulmbach,/wiki/Kulmbach,95326
Bayern,BY,Kupferberg,/wiki/Kupferberg,95362
Bayern,BY,Landau an der Isar,/wiki/Landau_an_der_Isar,94405
Bayern,BY,Landsberg am Lech,/wiki/Landsberg_am_Lech,"86899, 86932"
Bayern,BY,Landshut,/wiki/Landshut,84028–84036
Bayern,BY,Langenzenn,/wiki/Langenzenn,90579
Bayern,BY,Lauf an der Pegnitz,/wiki/Lauf_an_der_Pegnitz,91207
Bayern,BY,Laufen,/wiki/Laufen_(Salzach),83410
Bayern,BY,Lauingen,/wiki/Lauingen_(Donau),89415
Bayern,BY,Leipheim,/wiki/Leipheim,89340
Bayern,BY,Leutershausen,/wiki/Leutershausen,91578
Bayern,BY,Lichtenberg,/wiki/Lichtenberg_(Oberfranken),95192
Bayern,BY,Lichtenfels,/wiki/Lichtenfels_(Oberfranken),96215
Bayern,BY,Lindau,/wiki/Lindau_(Bodensee),88131
Bayern,BY,Lindenberg im Allgäu,/wiki/Lindenberg_im_Allg%C3%A4u,88161
Bayern,BY,Lohr am Main,/wiki/Lohr_am_Main,97816
Bayern,BY,Ludwigsstadt,/wiki/Ludwigsstadt,96337
Bayern,BY,Mainbernheim,/wiki/Mainbernheim,97350
Bayern,BY,Mainburg,/wiki/Mainburg,84048
Bayern,BY,Marktbreit,/wiki/Marktbreit,97340
Bayern,BY,Marktheidenfeld,/wiki/Marktheidenfeld,97828
Bayern,BY,Marktleuthen,/wiki/Marktleuthen,95168
Bayern,BY,Marktoberdorf,/wiki/Marktoberdorf,87616
Bayern,BY,Marktredwitz,/wiki/Marktredwitz,95615
Bayern,BY,Marktsteft,/wiki/Marktsteft,97342
Bayern,BY,Maxhütte-Haidhof,/wiki/Maxh%C3%BCtte-Haidhof,93142
Bayern,BY,Mellrichstadt,/wiki/Mellrichstadt,97638
Bayern,BY,Memmingen,/wiki/Memmingen,87700
Bayern,BY,Merkendorf,/wiki/Merkendorf_(Mittelfranken),91732
Bayern,BY,Miesbach,/wiki/Miesbach,83714
Bayern,BY,Miltenberg,/wiki/Miltenberg,63897
Bayern,BY,Mindelheim,/wiki/Mindelheim,87719
Bayern,BY,Mitterteich,/wiki/Mitterteich,95666
Bayern,BY,Monheim,/wiki/Monheim_(Schwaben),86653
Bayern,BY,Moosburg an der Isar,/wiki/Moosburg_an_der_Isar,85368
Bayern,BY,Mühldorf am Inn,/wiki/M%C3%BChldorf_am_Inn,84453
Bayern,BY,Münchberg,/wiki/M%C3%BCnchberg,95213
Bayern,BY,München,/wiki/M%C3%BCnchen,"80331–81929, 85540"
Bayern,BY,Münnerstadt,/wiki/M%C3%BCnnerstadt,97702
Bayern,BY,Nabburg,/wiki/Nabburg,92507
Bayern,BY,Naila,/wiki/Naila,95119
Bayern,BY,Neuburg an der Donau,/wiki/Neuburg_an_der_Donau,86633
Bayern,BY,Neumarkt in der Oberpfalz,/wiki/Neumarkt_in_der_Oberpfalz,92318
Bayern,BY,Neumarkt-Sankt Veit,/wiki/Neumarkt-Sankt_Veit,84494
Bayern,BY,Neunburg vorm Wald,/wiki/Neunburg_vorm_Wald,92431
Bayern,BY,Neuötting,/wiki/Neu%C3%B6tting,84524
Bayern,BY,Neusäß,/wiki/Neus%C3%A4%C3%9F,86356
Bayern,BY,Neustadt am Kulm,/wiki/Neustadt_am_Kulm,95514
Bayern,BY,Neustadt an der Aisch,/wiki/Neustadt_an_der_Aisch,91413
Bayern,BY,Neustadt an der Donau,/wiki/Neustadt_an_der_Donau,93333
Bayern,BY,Neustadt an der Waldnaab,/wiki/Neustadt_an_der_Waldnaab,92660
Bayern,BY,Neustadt bei Coburg,/wiki/Neustadt_bei_Coburg,96465
Bayern,BY,Neutraubling,/wiki/Neutraubling,93073
Bayern,BY,Neu-Ulm,/wiki/Neu-Ulm,"89231, 89233"
Bayern,BY,Nittenau,/wiki/Nittenau,93149
Bayern,BY,Nördlingen,/wiki/N%C3%B6rdlingen,86720
Bayern,BY,Nürnberg,/wiki/N%C3%BCrnberg,90402–90491
Bayern,BY,Oberasbach,/wiki/Oberasbach,90522
Bayern,BY,Obernburg am Main,/wiki/Obernburg_am_Main,63785
Bayern,BY,Oberviechtach,/wiki/Oberviechtach,92526
Bayern,BY,Ochsenfurt,/wiki/Ochsenfurt,97199
Bayern,BY,Oettingen in Bayern,/wiki/Oettingen_in_Bayern,86732
Bayern,BY,Olching,/wiki/Olching,82140
Bayern,BY,Ornbau,/wiki/Ornbau,91737
Bayern,BY,Osterhofen,/wiki/Osterhofen,94486
Bayern,BY,Ostheim vor der Rhön,/wiki/Ostheim_vor_der_Rh%C3%B6n,"97645, 97647"
Bayern,BY,Pappenheim,/wiki/Pappenheim,91788
Bayern,BY,Parsberg,/wiki/Parsberg,92331
Bayern,BY,Passau,/wiki/Passau,"94032, 94034, 94036"
Bayern,BY,Pegnitz,/wiki/Pegnitz_(Stadt),91257
Bayern,BY,Penzberg,/wiki/Penzberg,82377
Bayern,BY,Pfaffenhofen an der Ilm,/wiki/Pfaffenhofen_an_der_Ilm,85276
Bayern,BY,Pfarrkirchen,/wiki/Pfarrkirchen,84347
Bayern,BY,Pfreimd,/wiki/Pfreimd,92536
Bayern,BY,Plattling,/wiki/Plattling,94447
Bayern,BY,Pleystein,/wiki/Pleystein,92714
Bayern,BY,Pocking,/wiki/Pocking,94060
Bayern,BY,Pottenstein,/wiki/Pottenstein_(Oberfranken),91278
Bayern,BY,Pressath,/wiki/Pressath,92690
Bayern,BY,Prichsenstadt,/wiki/Prichsenstadt,97357
Bayern,BY,Puchheim,/wiki/Puchheim,82178
Bayern,BY,Rain,/wiki/Rain_(Lech),86641
Bayern,BY,Regen,/wiki/Regen_(Stadt),94209
Bayern,BY,Regensburg,/wiki/Regensburg,93047–93059
Bayern,BY,Rehau,/wiki/Rehau,95111
Bayern,BY,Riedenburg,/wiki/Riedenburg,93339
Bayern,BY,Rieneck,/wiki/Rieneck,97794
Bayern,BY,Rödental,/wiki/R%C3%B6dental,96472
Bayern,BY,Roding,/wiki/Roding,93426
Bayern,BY,Rosenheim,/wiki/Rosenheim,"83022, 83024, 83026"
Bayern,BY,Roth,/wiki/Roth,91154
Bayern,BY,Röthenbach an der Pegnitz,/wiki/R%C3%B6thenbach_an_der_Pegnitz,90552
Bayern,BY,Rothenburg ob der Tauber,/wiki/Rothenburg_ob_der_Tauber,91541
Bayern,BY,Rothenfels,/wiki/Rothenfels,97851
Bayern,BY,Rottenburg an der Laaber,/wiki/Rottenburg_an_der_Laaber,84056
Bayern,BY,Röttingen,/wiki/R%C3%B6ttingen,97285
Bayern,BY,Rötz,/wiki/R%C3%B6tz,92444
Bayern,BY,Schauenstein,/wiki/Schauenstein,95197
Bayern,BY,Scheinfeld,/wiki/Scheinfeld,91443
Bayern,BY,Scheßlitz,/wiki/Sche%C3%9Flitz,96110
Bayern,BY,Schillingsfürst,/wiki/Schillingsf%C3%BCrst,91583
Bayern,BY,Schlüsselfeld,/wiki/Schl%C3%BCsselfeld,96132
Bayern,BY,Schnaittenbach,/wiki/Schnaittenbach,92253
Bayern,BY,Schongau,/wiki/Schongau,86956
Bayern,BY,Schönsee,/wiki/Sch%C3%B6nsee,92539
Bayern,BY,Schönwald,/wiki/Sch%C3%B6nwald_(Bayern),95173
Bayern,BY,Schrobenhausen,/wiki/Schrobenhausen,86529
Bayern,BY,Schwabach,/wiki/Schwabach,91126
Bayern,BY,Schwabmünchen,/wiki/Schwabm%C3%BCnchen,86830
Bayern,BY,Schwandorf,/wiki/Schwandorf,92421
Bayern,BY,Schwarzenbach am Wald,/wiki/Schwarzenbach_am_Wald,95131
Bayern,BY,Schwarzenbach an der Saale,/wiki/Schwarzenbach_an_der_Saale,"95126, 95158"
Bayern,BY,Schweinfurt,/wiki/Schweinfurt,"97421, 97422, 97424"
Bayern,BY,Selb,/wiki/Selb,95100
Bayern,BY,Selbitz,/wiki/Selbitz_(Oberfranken),95152
Bayern,BY,Senden,/wiki/Senden_(Bayern),89250
Bayern,BY,Seßlach,/wiki/Se%C3%9Flach,96145
Bayern,BY,Simbach am Inn,/wiki/Simbach_am_Inn,84359
Bayern,BY,Sonthofen,/wiki/Sonthofen,87527
Bayern,BY,Spalt,/wiki/Spalt,91174
Bayern,BY,Stadtbergen,/wiki/Stadtbergen,86391
Bayern,BY,Stadtprozelten,/wiki/Stadtprozelten,97909
Bayern,BY,Stadtsteinach,/wiki/Stadtsteinach,95346
Bayern,BY,Starnberg,/wiki/Starnberg,82319
Bayern,BY,Stein,/wiki/Stein_(Mittelfranken),90547
Bayern,BY,Straubing,/wiki/Straubing,94315
Bayern,BY,Sulzbach-Rosenberg,/wiki/Sulzbach-Rosenberg,92237
Bayern,BY,Tegernsee,/wiki/Tegernsee_(Stadt),83684
Bayern,BY,Teublitz,/wiki/Teublitz,93158
Bayern,BY,Teuschnitz,/wiki/Teuschnitz,96358
Bayern,BY,Thannhausen,/wiki/Thannhausen_(Schwaben),86470
Bayern,BY,Tirschenreuth,/wiki/Tirschenreuth,95643
Bayern,BY,Tittmoning,/wiki/Tittmoning,84529
Bayern,BY,Töging am Inn,/wiki/T%C3%B6ging_am_Inn,84513
Bayern,BY,Traunreut,/wiki/Traunreut,"83301, "
Bayern,BY,Traunstein,/wiki/Traunstein,83278
Bayern,BY,Treuchtlingen,/wiki/Treuchtlingen,91757
Bayern,BY,Trostberg,/wiki/Trostberg,83308
Bayern,BY,Uffenheim,/wiki/Uffenheim,97215
Bayern,BY,Unterschleißheim,/wiki/Unterschlei%C3%9Fheim,85716
Bayern,BY,Velburg,/wiki/Velburg,92355
Bayern,BY,Velden,/wiki/Velden_(Pegnitz),91235
Bayern,BY,Viechtach,/wiki/Viechtach,94234
Bayern,BY,Vilsbiburg,/wiki/Vilsbiburg,84137
Bayern,BY,Vilseck,/wiki/Vilseck,92249
Bayern,BY,Vilshofen an der Donau,/wiki/Vilshofen_an_der_Donau,94474
Bayern,BY,Vohburg an der Donau,/wiki/Vohburg_an_der_Donau,85088
Bayern,BY,Vohenstrauß,/wiki/Vohenstrau%C3%9F,92648
Bayern,BY,Vöhringen,/wiki/V%C3%B6hringen_(Iller),89269
Bayern,BY,Volkach,/wiki/Volkach,97332
Bayern,BY,Waischenfeld,/wiki/Waischenfeld,91344
Bayern,BY,Waldershof,/wiki/Waldershof,95679
Bayern,BY,Waldkirchen,/wiki/Waldkirchen,94065
Bayern,BY,Waldkraiburg,/wiki/Waldkraiburg,84478
Bayern,BY,Waldmünchen,/wiki/Waldm%C3%BCnchen,93449
Bayern,BY,Waldsassen,/wiki/Waldsassen,95652
Bayern,BY,Wallenfels,/wiki/Wallenfels,96346
Bayern,BY,Wasserburg am Inn,/wiki/Wasserburg_am_Inn,83512
Bayern,BY,Wassertrüdingen,/wiki/Wassertr%C3%BCdingen,91717
Bayern,BY,Weiden in der Oberpfalz,/wiki/Weiden_in_der_Oberpfalz,92637
Bayern,BY,Weilheim in Oberbayern,/wiki/Weilheim_in_Oberbayern,82362
Bayern,BY,Weismain,/wiki/Weismain,96260
Bayern,BY,Weißenburg in Bayern,/wiki/Wei%C3%9Fenburg_in_Bayern,91781
Bayern,BY,Weißenhorn,/wiki/Wei%C3%9Fenhorn,89264
Bayern,BY,Weißenstadt,/wiki/Wei%C3%9Fenstadt,95163
Bayern,BY,Wemding,/wiki/Wemding,86650
Bayern,BY,Wertingen,/wiki/Wertingen,86637
Bayern,BY,Windischeschenbach,/wiki/Windischeschenbach,92670
Bayern,BY,Windsbach,/wiki/Windsbach,91575
Bayern,BY,Wolframs-Eschenbach,/wiki/Wolframs-Eschenbach,91639
Bayern,BY,Wolfratshausen,/wiki/Wolfratshausen,82515
Bayern,BY,Wörth am Main,/wiki/W%C3%B6rth_am_Main,63939
Bayern,BY,Wörth an der Donau,/wiki/W%C3%B6rth_an_der_Donau,93086
Bayern,BY,Wunsiedel,/wiki/Wunsiedel,95632
Bayern,BY,Würzburg,/wiki/W%C3%BCrzburg,97070–97084
Bayern,BY,Zeil am Main,/wiki/Zeil_am_Main,97475
Bayern,BY,Zirndorf,/wiki/Zirndorf,90513
Bayern,BY,Zwiesel,/wiki/Zwiesel,94227
Baden-Württemberg,BW,Aach,/wiki/Aach_(Hegau),78267
Baden-Württemberg,BW,Aalen,/wiki/Aalen,"73430–73434, 73453"
Baden-Württemberg,BW,Achern,/wiki/Achern,77855
Baden-Württemberg,BW,Adelsheim,/wiki/Adelsheim,74740
Baden-Württemberg,BW,Aichtal,/wiki/Aichtal,72631
Baden-Württemberg,BW,Albstadt,/wiki/Albstadt,72458–72461
Baden-Württemberg,BW,Alpirsbach,/wiki/Alpirsbach,72275
Baden-Württemberg,BW,Altensteig,/wiki/Altensteig,72213
Baden-Württemberg,BW,Asperg,/wiki/Asperg,71679
Baden-Württemberg,BW,Aulendorf,/wiki/Aulendorf,88326
Baden-Württemberg,BW,Backnang,/wiki/Backnang,"71522, 71570"
Baden-Württemberg,BW,Bad Buchau,/wiki/Bad_Buchau,88422
Baden-Württemberg,BW,Bad Dürrheim,/wiki/Bad_D%C3%BCrrheim,78073
Baden-Württemberg,BW,Baden-Baden,/wiki/Baden-Baden,"76530, 76532, 76534"
Baden-Württemberg,BW,Bad Friedrichshall,/wiki/Bad_Friedrichshall,74177
Baden-Württemberg,BW,Bad Herrenalb,/wiki/Bad_Herrenalb,76332
Baden-Württemberg,BW,Bad Krozingen,/wiki/Bad_Krozingen,79189
Baden-Württemberg,BW,Bad Liebenzell,/wiki/Bad_Liebenzell,75378
Baden-Württemberg,BW,Bad Mergentheim,/wiki/Bad_Mergentheim,97980
Baden-Württemberg,BW,Bad Rappenau,/wiki/Bad_Rappenau,74906
Baden-Württemberg,BW,Bad Säckingen,/wiki/Bad_S%C3%A4ckingen,79713
Baden-Württemberg,BW,Bad Saulgau,/wiki/Bad_Saulgau,88348
Baden-Württemberg,BW,Bad Schussenried,/wiki/Bad_Schussenried,88427
Baden-Württemberg,BW,Bad Teinach-Zavelstein,/wiki/Bad_Teinach-Zavelstein,75385
Baden-Württemberg,BW,Bad Urach,/wiki/Bad_Urach,72574
Baden-Württemberg,BW,Bad Waldsee,/wiki/Bad_Waldsee,88339
Baden-Württemberg,BW,Bad Wildbad,/wiki/Bad_Wildbad,75323
Baden-Württemberg,BW,Bad Wimpfen,/wiki/Bad_Wimpfen,74206
Baden-Württemberg,BW,Bad Wurzach,/wiki/Bad_Wurzach,88410
Baden-Württemberg,BW,Balingen,/wiki/Balingen,72336
Baden-Württemberg,BW,Beilstein,/wiki/Beilstein_(W%C3%BCrttemberg),"71717, "
Baden-Württemberg,BW,Besigheim,/wiki/Besigheim,74354
Baden-Württemberg,BW,Biberach an der Riß,/wiki/Biberach_an_der_Ri%C3%9F,88400
Baden-Württemberg,BW,Bietigheim-Bissingen,/wiki/Bietigheim-Bissingen,74321
Baden-Württemberg,BW,Blaubeuren,/wiki/Blaubeuren,89143
Baden-Württemberg,BW,Blaustein,/wiki/Blaustein,89134
Baden-Württemberg,BW,Blumberg,/wiki/Blumberg,78176
Baden-Württemberg,BW,Böblingen,/wiki/B%C3%B6blingen,"71032, 71034"
Baden-Württemberg,BW,Bonndorf im Schwarzwald,/wiki/Bonndorf_im_Schwarzwald,79848
Baden-Württemberg,BW,Bönnigheim,/wiki/B%C3%B6nnigheim,74357
Baden-Württemberg,BW,Bopfingen,/wiki/Bopfingen,73441
Baden-Württemberg,BW,Boxberg,/wiki/Boxberg_(Baden),97944
Baden-Württemberg,BW,Brackenheim,/wiki/Brackenheim,74336
Baden-Württemberg,BW,Bräunlingen,/wiki/Br%C3%A4unlingen,78199
Baden-Württemberg,BW,Breisach am Rhein,/wiki/Breisach_am_Rhein,79206
Baden-Württemberg,BW,Bretten,/wiki/Bretten,75015
Baden-Württemberg,BW,Bruchsal,/wiki/Bruchsal,76646
Baden-Württemberg,BW,Buchen,/wiki/Buchen_(Odenwald),74722
Baden-Württemberg,BW,Bühl,/wiki/B%C3%BChl,77815
Baden-Württemberg,BW,Burladingen,/wiki/Burladingen,72393
Baden-Württemberg,BW,Calw,/wiki/Calw,75365
Baden-Württemberg,BW,Crailsheim,/wiki/Crailsheim,"74564, 74597"
Baden-Württemberg,BW,Creglingen,/wiki/Creglingen,"97993, 97990"
Baden-Württemberg,BW,Dietenheim,/wiki/Dietenheim,89165
Baden-Württemberg,BW,Ditzingen,/wiki/Ditzingen,71254
Baden-Württemberg,BW,Donaueschingen,/wiki/Donaueschingen,78166
Baden-Württemberg,BW,Donzdorf,/wiki/Donzdorf,73072
Baden-Württemberg,BW,Dornhan,/wiki/Dornhan,72175
Baden-Württemberg,BW,Dornstetten,/wiki/Dornstetten,72280
Baden-Württemberg,BW,Eberbach,/wiki/Eberbach,"69412, "
Baden-Württemberg,BW,Ebersbach an der Fils,/wiki/Ebersbach_an_der_Fils,73061
Baden-Württemberg,BW,Ehingen,/wiki/Ehingen_(Donau),89584
Baden-Württemberg,BW,Eislingen,/wiki/Eislingen/Fils,73054
Baden-Württemberg,BW,Ellwangen,/wiki/Ellwangen_(Jagst),73479
Baden-Württemberg,BW,Elzach,/wiki/Elzach,79215
Baden-Württemberg,BW,Emmendingen,/wiki/Emmendingen,79312
Baden-Württemberg,BW,Endingen am Kaiserstuhl,/wiki/Endingen_am_Kaiserstuhl,79346
Baden-Württemberg,BW,Engen,/wiki/Engen,78234
Baden-Württemberg,BW,Eppelheim,/wiki/Eppelheim,69214
Baden-Württemberg,BW,Eppingen,/wiki/Eppingen,75031
Baden-Württemberg,BW,Erbach,/wiki/Erbach_(Donau),89155
Baden-Württemberg,BW,Esslingen am Neckar,/wiki/Esslingen_am_Neckar,73728–73734
Baden-Württemberg,BW,Ettenheim,/wiki/Ettenheim,77955
Baden-Württemberg,BW,Ettlingen,/wiki/Ettlingen,"76275, 76359"
Baden-Württemberg,BW,Fellbach,/wiki/Fellbach,"70734, 70736"
Baden-Württemberg,BW,Filderstadt,/wiki/Filderstadt,70794
Baden-Württemberg,BW,Forchtenberg,/wiki/Forchtenberg,"74670, 74249, 74632, 74639"
Baden-Württemberg,BW,Freiberg am Neckar,/wiki/Freiberg_am_Neckar,71691
Baden-Württemberg,BW,Freiburg im Breisgau,/wiki/Freiburg_im_Breisgau,79098–79117
Baden-Württemberg,BW,Freudenberg,/wiki/Freudenberg_(Baden),97896
Baden-Württemberg,BW,Freudenstadt,/wiki/Freudenstadt,72250
Baden-Württemberg,BW,Fridingen an der Donau,/wiki/Fridingen_an_der_Donau,78567
Baden-Württemberg,BW,Friedrichshafen,/wiki/Friedrichshafen,"88045, 88046, 88048"
Baden-Württemberg,BW,Furtwangen im Schwarzwald,/wiki/Furtwangen_im_Schwarzwald,78120
Baden-Württemberg,BW,Gaggenau,/wiki/Gaggenau,76571
Baden-Württemberg,BW,Gaildorf,/wiki/Gaildorf,74405
Baden-Württemberg,BW,Gammertingen,/wiki/Gammertingen,72501
Baden-Württemberg,BW,Geisingen,/wiki/Geisingen,78187
Baden-Württemberg,BW,Geislingen,/wiki/Geislingen_(Zollernalbkreis),72351
Baden-Württemberg,BW,Geislingen an der Steige,/wiki/Geislingen_an_der_Steige,73312
Baden-Württemberg,BW,Gengenbach,/wiki/Gengenbach,77723
Baden-Württemberg,BW,Gerabronn,/wiki/Gerabronn,"74582, 74585"
Baden-Württemberg,BW,Gerlingen,/wiki/Gerlingen,70839
Baden-Württemberg,BW,Gernsbach,/wiki/Gernsbach,76593
Baden-Württemberg,BW,Giengen an der Brenz,/wiki/Giengen_an_der_Brenz,"89537, 89522"
Baden-Württemberg,BW,Göppingen,/wiki/G%C3%B6ppingen,"73033, 73035, 73037, 73116"
Baden-Württemberg,BW,Großbottwar,/wiki/Gro%C3%9Fbottwar,71723
Baden-Württemberg,BW,Grünsfeld,/wiki/Gr%C3%BCnsfeld,97947
Baden-Württemberg,BW,Güglingen,/wiki/G%C3%BCglingen,74363
Baden-Württemberg,BW,Gundelsheim,/wiki/Gundelsheim_(W%C3%BCrttemberg),74831
Baden-Württemberg,BW,Haigerloch,/wiki/Haigerloch,72401
Baden-Württemberg,BW,Haiterbach,/wiki/Haiterbach,72221
Baden-Württemberg,BW,Haslach im Kinzigtal,/wiki/Haslach_im_Kinzigtal,77716
Baden-Württemberg,BW,Hausach,/wiki/Hausach,77756
Baden-Württemberg,BW,Hayingen,/wiki/Hayingen,72534
Baden-Württemberg,BW,Hechingen,/wiki/Hechingen,72379
Baden-Württemberg,BW,Heidelberg,/wiki/Heidelberg,69115–69126
Baden-Württemberg,BW,Heidenheim an der Brenz,/wiki/Heidenheim_an_der_Brenz,"89518, 89520, 89522"
Baden-Württemberg,BW,Heilbronn,/wiki/Heilbronn,74072–74081
Baden-Württemberg,BW,Heimsheim,/wiki/Heimsheim,71296
Baden-Württemberg,BW,Heitersheim,/wiki/Heitersheim,79423
Baden-Württemberg,BW,Hemsbach,/wiki/Hemsbach,69502
Baden-Württemberg,BW,Herbolzheim,/wiki/Herbolzheim,79336
Baden-Württemberg,BW,Herbrechtingen,/wiki/Herbrechtingen,89542
Baden-Württemberg,BW,Herrenberg,/wiki/Herrenberg,71083
Baden-Württemberg,BW,Hettingen,/wiki/Hettingen,"72513, 72419, 72501"
Baden-Württemberg,BW,Heubach,/wiki/Heubach,73540
Baden-Württemberg,BW,Hockenheim,/wiki/Hockenheim,68766
Baden-Württemberg,BW,Holzgerlingen,/wiki/Holzgerlingen,71088
Baden-Württemberg,BW,Horb am Neckar,/wiki/Horb_am_Neckar,72160
Baden-Württemberg,BW,Hornberg,/wiki/Hornberg,78132
Baden-Württemberg,BW,Hüfingen,/wiki/H%C3%BCfingen,78183
Baden-Württemberg,BW,Ilshofen,/wiki/Ilshofen,74532
Baden-Württemberg,BW,Ingelfingen,/wiki/Ingelfingen,74653
Baden-Württemberg,BW,Isny im Allgäu,/wiki/Isny_im_Allg%C3%A4u,88316
Baden-Württemberg,BW,Kandern,/wiki/Kandern,79400
Baden-Württemberg,BW,Karlsruhe,/wiki/Karlsruhe,76131–76229
Baden-Württemberg,BW,Kehl,/wiki/Kehl,77694
Baden-Württemberg,BW,Kenzingen,/wiki/Kenzingen,79341
Baden-Württemberg,BW,Kirchberg an der Jagst,/wiki/Kirchberg_an_der_Jagst,74592
Baden-Württemberg,BW,Kirchheim unter Teck,/wiki/Kirchheim_unter_Teck,73230
Baden-Württemberg,BW,Knittlingen,/wiki/Knittlingen,75438
Baden-Württemberg,BW,Konstanz,/wiki/Konstanz,"78462, 78464, 78465, 78467"
Baden-Württemberg,BW,Korntal-Münchingen,/wiki/Korntal-M%C3%BCnchingen,70825
Baden-Württemberg,BW,Kornwestheim,/wiki/Kornwestheim,"70806, 71638"
Baden-Württemberg,BW,Kraichtal,/wiki/Kraichtal,76703
Baden-Württemberg,BW,Krautheim,/wiki/Krautheim_(Jagst),74238
Baden-Württemberg,BW,Külsheim,/wiki/K%C3%BClsheim,97900
Baden-Württemberg,BW,Künzelsau,/wiki/K%C3%BCnzelsau,74653
Baden-Württemberg,BW,Kuppenheim,/wiki/Kuppenheim,76456
Baden-Württemberg,BW,Ladenburg,/wiki/Ladenburg,68526
Baden-Württemberg,BW,Lahr,/wiki/Lahr/Schwarzwald,77933
Baden-Württemberg,BW,Laichingen,/wiki/Laichingen,89150
Baden-Württemberg,BW,Langenau,/wiki/Langenau,89129
Baden-Württemberg,BW,Langenburg,/wiki/Langenburg,74595
Baden-Württemberg,BW,Lauchheim,/wiki/Lauchheim,73466
Baden-Württemberg,BW,Lauda-Königshofen,/wiki/Lauda-K%C3%B6nigshofen,97922
Baden-Württemberg,BW,Laufenburg,/wiki/Laufenburg_(Baden),79725
Baden-Württemberg,BW,Lauffen am Neckar,/wiki/Lauffen_am_Neckar,74348
Baden-Württemberg,BW,Laupheim,/wiki/Laupheim,88471
Baden-Württemberg,BW,Lauterstein,/wiki/Lauterstein,73111
Baden-Württemberg,BW,Leimen,/wiki/Leimen_(Baden),69181
Baden-Württemberg,BW,Leinfelden-Echterdingen,/wiki/Leinfelden-Echterdingen,"70771, 71144"
Baden-Württemberg,BW,Leingarten,/wiki/Leingarten,74211
Baden-Württemberg,BW,Leonberg,/wiki/Leonberg,71229
Baden-Württemberg,BW,Leutkirch im Allgäu,/wiki/Leutkirch_im_Allg%C3%A4u,88299
Baden-Württemberg,BW,Lichtenau,/wiki/Lichtenau_(Baden),77839
Baden-Württemberg,BW,Löffingen,/wiki/L%C3%B6ffingen,79843
Baden-Württemberg,BW,Lorch,/wiki/Lorch_(W%C3%BCrttemberg),73547
Baden-Württemberg,BW,Lörrach,/wiki/L%C3%B6rrach,79539–79541
Baden-Württemberg,BW,Löwenstein,/wiki/L%C3%B6wenstein,74245
Baden-Württemberg,BW,Ludwigsburg,/wiki/Ludwigsburg,"71634–71642, 71672"
Baden-Württemberg,BW,Mahlberg,/wiki/Mahlberg,77972
Baden-Württemberg,BW,Mannheim,/wiki/Mannheim,68159–68309
Baden-Württemberg,BW,Marbach am Neckar,/wiki/Marbach_am_Neckar,"71672, 71711"
Baden-Württemberg,BW,Markdorf,/wiki/Markdorf,88677
Baden-Württemberg,BW,Markgröningen,/wiki/Markgr%C3%B6ningen,71706
Baden-Württemberg,BW,Maulbronn,/wiki/Maulbronn,75433
Baden-Württemberg,BW,Meersburg,/wiki/Meersburg,88709
Baden-Württemberg,BW,Mengen,/wiki/Mengen,88512
Baden-Württemberg,BW,Meßkirch,/wiki/Me%C3%9Fkirch,88605
Baden-Württemberg,BW,Meßstetten,/wiki/Me%C3%9Fstetten,72469
Baden-Württemberg,BW,Metzingen,/wiki/Metzingen,72555
Baden-Württemberg,BW,Möckmühl,/wiki/M%C3%B6ckm%C3%BChl,74219
Baden-Württemberg,BW,Mosbach,/wiki/Mosbach,74821
Baden-Württemberg,BW,Mössingen,/wiki/M%C3%B6ssingen,72116
Baden-Württemberg,BW,Mühlacker,/wiki/M%C3%BChlacker,75417
Baden-Württemberg,BW,Mühlheim an der Donau,/wiki/M%C3%BChlheim_an_der_Donau,78570
Baden-Württemberg,BW,Müllheim im Markgräflerland,/wiki/M%C3%BCllheim_im_Markgr%C3%A4flerland,79379
Baden-Württemberg,BW,Munderkingen,/wiki/Munderkingen,89597
Baden-Württemberg,BW,Münsingen,/wiki/M%C3%BCnsingen_(W%C3%BCrttemberg),72525
Baden-Württemberg,BW,Murrhardt,/wiki/Murrhardt,71540
Baden-Württemberg,BW,Nagold,/wiki/Nagold,72202
Baden-Württemberg,BW,Neckarbischofsheim,/wiki/Neckarbischofsheim,74924
Baden-Württemberg,BW,Neckargemünd,/wiki/Neckargem%C3%BCnd,69151
Baden-Württemberg,BW,Neckarsulm,/wiki/Neckarsulm,74172
Baden-Württemberg,BW,Neresheim,/wiki/Neresheim,"73450, 73441"
Baden-Württemberg,BW,Neubulach,/wiki/Neubulach,"75387, 75385"
Baden-Württemberg,BW,Neudenau,/wiki/Neudenau,74861
Baden-Württemberg,BW,Neuenbürg,/wiki/Neuenb%C3%BCrg,75305
Baden-Württemberg,BW,Neuenburg am Rhein,/wiki/Neuenburg_am_Rhein,79395
Baden-Württemberg,BW,Neuenstadt am Kocher,/wiki/Neuenstadt_am_Kocher,74196
Baden-Württemberg,BW,Neuenstein,/wiki/Neuenstein_(Hohenlohe),74632
Baden-Württemberg,BW,Neuffen,/wiki/Neuffen,72639
Baden-Württemberg,BW,Niedernhall,/wiki/Niedernhall,74676
Baden-Württemberg,BW,Niederstetten,/wiki/Niederstetten,"97996, 97980"
Baden-Württemberg,BW,Niederstotzingen,/wiki/Niederstotzingen,89168
Baden-Württemberg,BW,Nürtingen,/wiki/N%C3%BCrtingen,72622
Baden-Württemberg,BW,Oberderdingen,/wiki/Oberderdingen,75038
Baden-Württemberg,BW,Oberkirch,/wiki/Oberkirch_(Baden),77704
Baden-Württemberg,BW,Oberkochen,/wiki/Oberkochen,73447
Baden-Württemberg,BW,Oberndorf am Neckar,/wiki/Oberndorf_am_Neckar,78727
Baden-Württemberg,BW,Oberriexingen,/wiki/Oberriexingen,71739
Baden-Württemberg,BW,Ochsenhausen,/wiki/Ochsenhausen,88416
Baden-Württemberg,BW,Offenburg,/wiki/Offenburg,"77652, 77654, 77656"
Baden-Württemberg,BW,Öhringen,/wiki/%C3%96hringen,74613
Baden-Württemberg,BW,Oppenau,/wiki/Oppenau,77728
Baden-Württemberg,BW,Osterburken,/wiki/Osterburken,74706
Baden-Württemberg,BW,Ostfildern,/wiki/Ostfildern,73760
Baden-Württemberg,BW,Östringen,/wiki/%C3%96stringen,76684
Baden-Württemberg,BW,Owen,/wiki/Owen,73277
Baden-Württemberg,BW,Pforzheim,/wiki/Pforzheim,75172–75181
Baden-Württemberg,BW,Pfullendorf,/wiki/Pfullendorf,88630
Baden-Württemberg,BW,Pfullingen,/wiki/Pfullingen,72793
Baden-Württemberg,BW,Philippsburg,/wiki/Philippsburg,76661
Baden-Württemberg,BW,Plochingen,/wiki/Plochingen,73207
Baden-Württemberg,BW,Radolfzell am Bodensee,/wiki/Radolfzell_am_Bodensee,78315
Baden-Württemberg,BW,Rastatt,/wiki/Rastatt,76437
Baden-Württemberg,BW,Rauenberg,/wiki/Rauenberg,69231
Baden-Württemberg,BW,Ravensburg,/wiki/Ravensburg,88212–88214
Baden-Württemberg,BW,Ravenstein,/wiki/Ravenstein,74747
Baden-Württemberg,BW,Remseck am Neckar,/wiki/Remseck_am_Neckar,"71686, 70378"
Baden-Württemberg,BW,Renchen,/wiki/Renchen,77871
Baden-Württemberg,BW,Renningen,/wiki/Renningen,71272
Baden-Württemberg,BW,Reutlingen,/wiki/Reutlingen,72760–72770
Baden-Württemberg,BW,Rheinau,/wiki/Rheinau_(Baden),77866
Baden-Württemberg,BW,Rheinfelden,/wiki/Rheinfelden_(Baden),79618
Baden-Württemberg,BW,Rheinstetten,/wiki/Rheinstetten,76287
Baden-Württemberg,BW,Riedlingen,/wiki/Riedlingen,88499
Baden-Württemberg,BW,Rosenfeld,/wiki/Rosenfeld,72348
Baden-Württemberg,BW,Rottenburg am Neckar,/wiki/Rottenburg_am_Neckar,72108
Baden-Württemberg,BW,Rottweil,/wiki/Rottweil,"78628, 78652"
Baden-Württemberg,BW,Rutesheim,/wiki/Rutesheim,71277
Baden-Württemberg,BW,Sachsenheim,/wiki/Sachsenheim,74343
Baden-Württemberg,BW,Scheer,/wiki/Scheer,72516
Baden-Württemberg,BW,Schelklingen,/wiki/Schelklingen,89601
Baden-Württemberg,BW,Schiltach,/wiki/Schiltach,"77761, 78733"
Baden-Württemberg,BW,Schömberg,/wiki/Sch%C3%B6mberg_(Zollernalbkreis),72355
Baden-Württemberg,BW,Schönau,/wiki/Sch%C3%B6nau_(Odenwald),69250
Baden-Württemberg,BW,Schönau im Schwarzwald,/wiki/Sch%C3%B6nau_im_Schwarzwald,79677
Baden-Württemberg,BW,Schopfheim,/wiki/Schopfheim,79650
Baden-Württemberg,BW,Schorndorf,/wiki/Schorndorf,73614
Baden-Württemberg,BW,Schramberg,/wiki/Schramberg,"78144, 78713"
Baden-Württemberg,BW,Schriesheim,/wiki/Schriesheim,69198
Baden-Württemberg,BW,Schrozberg,/wiki/Schrozberg,74575
Baden-Württemberg,BW,Schwäbisch Gmünd,/wiki/Schw%C3%A4bisch_Gm%C3%BCnd,"73525, 73527, 73529,"
Baden-Württemberg,BW,Schwäbisch Hall,/wiki/Schw%C3%A4bisch_Hall,74523
Baden-Württemberg,BW,Schwaigern,/wiki/Schwaigern,74193
Baden-Württemberg,BW,Schwetzingen,/wiki/Schwetzingen,68723
Baden-Württemberg,BW,Sigmaringen,/wiki/Sigmaringen,72488
Baden-Württemberg,BW,Sindelfingen,/wiki/Sindelfingen,"71063, 71065, 71067, 71069"
Baden-Württemberg,BW,Singen,/wiki/Singen_(Hohentwiel),78224
Baden-Württemberg,BW,Sinsheim,/wiki/Sinsheim,74889
Baden-Württemberg,BW,Spaichingen,/wiki/Spaichingen,78549
Baden-Württemberg,BW,Staufen im Breisgau,/wiki/Staufen_im_Breisgau,79219
Baden-Württemberg,BW,St. Blasien,/wiki/St._Blasien,"79837, 79875"
Baden-Württemberg,BW,Steinheim an der Murr,/wiki/Steinheim_an_der_Murr,71711
Baden-Württemberg,BW,St. Georgen im Schwarzwald,/wiki/St._Georgen_im_Schwarzwald,78112
Baden-Württemberg,BW,Stockach,/wiki/Stockach,78333
Baden-Württemberg,BW,Stühlingen,/wiki/St%C3%BChlingen,79780
Baden-Württemberg,BW,Stutensee,/wiki/Stutensee,76297
Baden-Württemberg,BW,Stuttgart,/wiki/Stuttgart,70173–70619
Baden-Württemberg,BW,Sulz am Neckar,/wiki/Sulz_am_Neckar,"72172, 72160, 72186"
Baden-Württemberg,BW,Sulzburg,/wiki/Sulzburg,79295
Baden-Württemberg,BW,Süßen,/wiki/S%C3%BC%C3%9Fen,"73079, 73054"
Baden-Württemberg,BW,Tamm,/wiki/Tamm,71732
Baden-Württemberg,BW,Tauberbischofsheim,/wiki/Tauberbischofsheim,97941
Baden-Württemberg,BW,Tengen,/wiki/Tengen,78250
Baden-Württemberg,BW,Tettnang,/wiki/Tettnang,88069
Baden-Württemberg,BW,Titisee-Neustadt,/wiki/Titisee-Neustadt,79822
Baden-Württemberg,BW,Todtnau,/wiki/Todtnau,79674
Baden-Württemberg,BW,Triberg im Schwarzwald,/wiki/Triberg_im_Schwarzwald,78098
Baden-Württemberg,BW,Trochtelfingen,/wiki/Trochtelfingen,72818
Baden-Württemberg,BW,Trossingen,/wiki/Trossingen,78647
Baden-Württemberg,BW,Tübingen,/wiki/T%C3%BCbingen,"72070, 72072, 72074, 72076"
Baden-Württemberg,BW,Tuttlingen,/wiki/Tuttlingen,78532
Baden-Württemberg,BW,Überlingen,/wiki/%C3%9Cberlingen,88662
Baden-Württemberg,BW,Uhingen,/wiki/Uhingen,73066
Baden-Württemberg,BW,Ulm,/wiki/Ulm,89073–89081
Baden-Württemberg,BW,Vaihingen an der Enz,/wiki/Vaihingen_an_der_Enz,71665
Baden-Württemberg,BW,Vellberg,/wiki/Vellberg,74541
Baden-Württemberg,BW,Veringenstadt,/wiki/Veringenstadt,72519
Baden-Württemberg,BW,Villingen-Schwenningen,/wiki/Villingen-Schwenningen,78048–78056
Baden-Württemberg,BW,Vogtsburg im Kaiserstuhl,/wiki/Vogtsburg_im_Kaiserstuhl,79235
Baden-Württemberg,BW,Vöhrenbach,/wiki/V%C3%B6hrenbach,78147
Baden-Württemberg,BW,Waghäusel,/wiki/Wagh%C3%A4usel,68753
Baden-Württemberg,BW,Waiblingen,/wiki/Waiblingen,"71332, 71334, 71336"
Baden-Württemberg,BW,Waibstadt,/wiki/Waibstadt,74915
Baden-Württemberg,BW,Waldenbuch,/wiki/Waldenbuch,71111
Baden-Württemberg,BW,Waldenburg,/wiki/Waldenburg_(W%C3%BCrttemberg),"74638, 74545"
Baden-Württemberg,BW,Waldkirch,/wiki/Waldkirch,79183
Baden-Württemberg,BW,Waldshut-Tiengen,/wiki/Waldshut-Tiengen,79761
Baden-Württemberg,BW,Walldorf,/wiki/Walldorf,69190
Baden-Württemberg,BW,Walldürn,/wiki/Walld%C3%BCrn,"74731, 63928"
Baden-Württemberg,BW,Wangen im Allgäu,/wiki/Wangen_im_Allg%C3%A4u,88239
Baden-Württemberg,BW,Wehr,/wiki/Wehr_(Baden),79664
Baden-Württemberg,BW,Weikersheim,/wiki/Weikersheim,97990
Baden-Württemberg,BW,Weil am Rhein,/wiki/Weil_am_Rhein,79576
Baden-Württemberg,BW,Weil der Stadt,/wiki/Weil_der_Stadt,71263
Baden-Württemberg,BW,Weilheim an der Teck,/wiki/Weilheim_an_der_Teck,73235
Baden-Württemberg,BW,Weingarten,/wiki/Weingarten_(W%C3%BCrttemberg),88250
Baden-Württemberg,BW,Weinheim,/wiki/Weinheim,69469
Baden-Württemberg,BW,Weinsberg,/wiki/Weinsberg,74189
Baden-Württemberg,BW,Weinstadt,/wiki/Weinstadt,71384
Baden-Württemberg,BW,Welzheim,/wiki/Welzheim,73642
Baden-Württemberg,BW,Wendlingen am Neckar,/wiki/Wendlingen_am_Neckar,73240
Baden-Württemberg,BW,Wernau,/wiki/Wernau_(Neckar),73249
Baden-Württemberg,BW,Wertheim,/wiki/Wertheim,97877
Baden-Württemberg,BW,Widdern,/wiki/Widdern,74259
Baden-Württemberg,BW,Wiesensteig,/wiki/Wiesensteig,73349
Baden-Württemberg,BW,Wiesloch,/wiki/Wiesloch,69168
Baden-Württemberg,BW,Wildberg,/wiki/Wildberg_(Schwarzwald),72218
Baden-Württemberg,BW,Winnenden,/wiki/Winnenden,71364
Baden-Württemberg,BW,Wolfach,/wiki/Wolfach,77709
Baden-Württemberg,BW,Zell am Harmersbach,/wiki/Zell_am_Harmersbach,77736
Baden-Württemberg,BW,Zell im Wiesental,/wiki/Zell_im_Wiesental,79669
Nordrhein-Westfalen,NW,Aachen,/wiki/Aachen,52062–52080
Nordrhein-Westfalen,NW,Ahaus,/wiki/Ahaus,48683
Nordrhein-Westfalen,NW,Ahlen,/wiki/Ahlen,"59227, 59229"
Nordrhein-Westfalen,NW,Alsdorf,/wiki/Alsdorf,52477
Nordrhein-Westfalen,NW,Altena,/wiki/Altena,58762
Nordrhein-Westfalen,NW,Arnsberg,/wiki/Arnsberg,"59755, 59757, 59759, 59821, 59823"
Nordrhein-Westfalen,NW,Attendorn,/wiki/Attendorn,57439
Nordrhein-Westfalen,NW,Bad Berleburg,/wiki/Bad_Berleburg,57319
Nordrhein-Westfalen,NW,Bad Driburg,/wiki/Bad_Driburg,33014
Nordrhein-Westfalen,NW,Bad Honnef,/wiki/Bad_Honnef,53604
Nordrhein-Westfalen,NW,Bad Laasphe,/wiki/Bad_Laasphe,57334
Nordrhein-Westfalen,NW,Bad Lippspringe,/wiki/Bad_Lippspringe,33175
Nordrhein-Westfalen,NW,Bad Münstereifel,/wiki/Bad_M%C3%BCnstereifel,53902
Nordrhein-Westfalen,NW,Bad Oeynhausen,/wiki/Bad_Oeynhausen,"32545, 32547, 32549"
Nordrhein-Westfalen,NW,Bad Salzuflen,/wiki/Bad_Salzuflen,"32105, 32107, 32108"
Nordrhein-Westfalen,NW,Bad Wünnenberg,/wiki/Bad_W%C3%BCnnenberg,33181
Nordrhein-Westfalen,NW,Baesweiler,/wiki/Baesweiler,52499
Nordrhein-Westfalen,NW,Balve,/wiki/Balve,58802
Nordrhein-Westfalen,NW,Barntrup,/wiki/Barntrup,32683
Nordrhein-Westfalen,NW,Beckum,/wiki/Beckum,59269
Nordrhein-Westfalen,NW,Bedburg,/wiki/Bedburg,50181
Nordrhein-Westfalen,NW,Bergheim,/wiki/Bergheim,"50126, 50127, 50129"
Nordrhein-Westfalen,NW,Bergisch Gladbach,/wiki/Bergisch_Gladbach,"51427, 51429, 51465, 51467, 51469"
Nordrhein-Westfalen,NW,Bergkamen,/wiki/Bergkamen,59192
Nordrhein-Westfalen,NW,Bergneustadt,/wiki/Bergneustadt,51702
Nordrhein-Westfalen,NW,Beverungen,/wiki/Beverungen,37688
Nordrhein-Westfalen,NW,Bielefeld,/wiki/Bielefeld,33602 – 33739
Nordrhein-Westfalen,NW,Billerbeck,/wiki/Billerbeck,48727
Nordrhein-Westfalen,NW,Blomberg,/wiki/Blomberg,32825
Nordrhein-Westfalen,NW,Bocholt,/wiki/Bocholt,"46395, 46397, 46399"
Nordrhein-Westfalen,NW,Bochum,/wiki/Bochum,44787–44894
Nordrhein-Westfalen,NW,Bonn,/wiki/Bonn,53111–53129
Nordrhein-Westfalen,NW,Borgentreich,/wiki/Borgentreich,34434
Nordrhein-Westfalen,NW,Borgholzhausen,/wiki/Borgholzhausen,33829
Nordrhein-Westfalen,NW,Borken,/wiki/Borken,46325
Nordrhein-Westfalen,NW,Bornheim,/wiki/Bornheim_(Rheinland),53332
Nordrhein-Westfalen,NW,Bottrop,/wiki/Bottrop,46236–46244
Nordrhein-Westfalen,NW,Brakel,/wiki/Brakel,33034
Nordrhein-Westfalen,NW,Breckerfeld,/wiki/Breckerfeld,58339
Nordrhein-Westfalen,NW,Brilon,/wiki/Brilon,59929
Nordrhein-Westfalen,NW,Brühl,/wiki/Br%C3%BChl_(Rheinland),50321
Nordrhein-Westfalen,NW,Bünde,/wiki/B%C3%BCnde,32257
Nordrhein-Westfalen,NW,Büren,/wiki/B%C3%BCren_(Westfalen),33142
Nordrhein-Westfalen,NW,Burscheid,/wiki/Burscheid,51399
Nordrhein-Westfalen,NW,Castrop-Rauxel,/wiki/Castrop-Rauxel,"44575, 44577, 44579, 44581"
Nordrhein-Westfalen,NW,Coesfeld,/wiki/Coesfeld,48653
Nordrhein-Westfalen,NW,Datteln,/wiki/Datteln,45711
Nordrhein-Westfalen,NW,Delbrück,/wiki/Delbr%C3%BCck,33129
Nordrhein-Westfalen,NW,Detmold,/wiki/Detmold,"32756, 32758, 32760"
Nordrhein-Westfalen,NW,Dinslaken,/wiki/Dinslaken,"46535, 46537, 46539"
Nordrhein-Westfalen,NW,Dormagen,/wiki/Dormagen,41539–41542
Nordrhein-Westfalen,NW,Dorsten,/wiki/Dorsten,"46282, 46284, 46286"
Nordrhein-Westfalen,NW,Dortmund,/wiki/Dortmund,44135–44388
Nordrhein-Westfalen,NW,Drensteinfurt,/wiki/Drensteinfurt,48317
Nordrhein-Westfalen,NW,Drolshagen,/wiki/Drolshagen,57489
Nordrhein-Westfalen,NW,Duisburg,/wiki/Duisburg,47051–47279
Nordrhein-Westfalen,NW,Dülmen,/wiki/D%C3%BClmen,48249
Nordrhein-Westfalen,NW,Düren,/wiki/D%C3%BCren,"52349, 52351, 52353, 52355"
Nordrhein-Westfalen,NW,Düsseldorf,/wiki/D%C3%BCsseldorf,40210–40629
Nordrhein-Westfalen,NW,Elsdorf,/wiki/Elsdorf_(Rheinland),50189
Nordrhein-Westfalen,NW,Emmerich am Rhein,/wiki/Emmerich_am_Rhein,46446
Nordrhein-Westfalen,NW,Emsdetten,/wiki/Emsdetten,48282
Nordrhein-Westfalen,NW,Enger,/wiki/Enger,32130
Nordrhein-Westfalen,NW,Ennepetal,/wiki/Ennepetal,58256
Nordrhein-Westfalen,NW,Ennigerloh,/wiki/Ennigerloh,59320
Nordrhein-Westfalen,NW,Erftstadt,/wiki/Erftstadt,50374
Nordrhein-Westfalen,NW,Erkelenz,/wiki/Erkelenz,41812
Nordrhein-Westfalen,NW,Erkrath,/wiki/Erkrath,40699
Nordrhein-Westfalen,NW,Erwitte,/wiki/Erwitte,59597
Nordrhein-Westfalen,NW,Eschweiler,/wiki/Eschweiler,52249
Nordrhein-Westfalen,NW,Espelkamp,/wiki/Espelkamp,32339
Nordrhein-Westfalen,NW,Essen,/wiki/Essen,45127–45359
Nordrhein-Westfalen,NW,Euskirchen,/wiki/Euskirchen,"53879, 53881"
Nordrhein-Westfalen,NW,Frechen,/wiki/Frechen,50226
Nordrhein-Westfalen,NW,Freudenberg,/wiki/Freudenberg_(Siegerland),57258
Nordrhein-Westfalen,NW,Fröndenberg,/wiki/Fr%C3%B6ndenberg/Ruhr,58730
Nordrhein-Westfalen,NW,Geilenkirchen,/wiki/Geilenkirchen,52511
Nordrhein-Westfalen,NW,Geldern,/wiki/Geldern,47608
Nordrhein-Westfalen,NW,Gelsenkirchen,/wiki/Gelsenkirchen,45879–45899
Nordrhein-Westfalen,NW,Gescher,/wiki/Gescher,48712
Nordrhein-Westfalen,NW,Geseke,/wiki/Geseke,59590
Nordrhein-Westfalen,NW,Gevelsberg,/wiki/Gevelsberg,58285
Nordrhein-Westfalen,NW,Gladbeck,/wiki/Gladbeck,"45964, 45966, 45968"
Nordrhein-Westfalen,NW,Goch,/wiki/Goch,47574
Nordrhein-Westfalen,NW,Greven,/wiki/Greven,48268
Nordrhein-Westfalen,NW,Grevenbroich,/wiki/Grevenbroich,"41515, 41516, 41517"
Nordrhein-Westfalen,NW,Gronau,/wiki/Gronau_(Westf.),48599
Nordrhein-Westfalen,NW,Gummersbach,/wiki/Gummersbach,"51643, 51645, 51647"
Nordrhein-Westfalen,NW,Gütersloh,/wiki/G%C3%BCtersloh,"33330–33335, 33311"
Nordrhein-Westfalen,NW,Haan,/wiki/Haan,42781
Nordrhein-Westfalen,NW,Hagen,/wiki/Hagen,"58089–58099, 58119, 58135"
Nordrhein-Westfalen,NW,Halle,/wiki/Halle_(Westf.),33790
Nordrhein-Westfalen,NW,Hallenberg,/wiki/Hallenberg,59969
Nordrhein-Westfalen,NW,Haltern am See,/wiki/Haltern_am_See,45721
Nordrhein-Westfalen,NW,Halver,/wiki/Halver,58553
Nordrhein-Westfalen,NW,Hamm,/wiki/Hamm,59063–59077
Nordrhein-Westfalen,NW,Hamminkeln,/wiki/Hamminkeln,46499
Nordrhein-Westfalen,NW,Harsewinkel,/wiki/Harsewinkel,33428
Nordrhein-Westfalen,NW,Hattingen,/wiki/Hattingen,"45525, 45527, 45529"
Nordrhein-Westfalen,NW,Heiligenhaus,/wiki/Heiligenhaus,42579
Nordrhein-Westfalen,NW,Heimbach,/wiki/Heimbach_(Eifel),52396
Nordrhein-Westfalen,NW,Heinsberg,/wiki/Heinsberg,52525
Nordrhein-Westfalen,NW,Hemer,/wiki/Hemer,58675
Nordrhein-Westfalen,NW,Hennef,/wiki/Hennef_(Sieg),53773
Nordrhein-Westfalen,NW,Herdecke,/wiki/Herdecke,58313
Nordrhein-Westfalen,NW,Herford,/wiki/Herford,"32049, 32051, 32052"
Nordrhein-Westfalen,NW,Herne,/wiki/Herne,"44623–44629,"
Nordrhein-Westfalen,NW,Herten,/wiki/Herten,"45699, 45701"
Nordrhein-Westfalen,NW,Herzogenrath,/wiki/Herzogenrath,52134
Nordrhein-Westfalen,NW,Hilchenbach,/wiki/Hilchenbach,57271
Nordrhein-Westfalen,NW,Hilden,/wiki/Hilden,"40721, 40723, 40724"
Nordrhein-Westfalen,NW,Horn-Bad Meinberg,/wiki/Horn-Bad_Meinberg,32805
Nordrhein-Westfalen,NW,Hörstel,/wiki/H%C3%B6rstel,48477
Nordrhein-Westfalen,NW,Horstmar,/wiki/Horstmar,48612
Nordrhein-Westfalen,NW,Höxter,/wiki/H%C3%B6xter,37671
Nordrhein-Westfalen,NW,Hückelhoven,/wiki/H%C3%BCckelhoven,41836
Nordrhein-Westfalen,NW,Hückeswagen,/wiki/H%C3%BCckeswagen,42499
Nordrhein-Westfalen,NW,Hürth,/wiki/H%C3%BCrth,50354
Nordrhein-Westfalen,NW,Ibbenbüren,/wiki/Ibbenb%C3%BCren,"49477, 49479"
Nordrhein-Westfalen,NW,Iserlohn,/wiki/Iserlohn,58636–58644
Nordrhein-Westfalen,NW,Isselburg,/wiki/Isselburg,46419
Nordrhein-Westfalen,NW,Jüchen,/wiki/J%C3%BCchen,41363
Nordrhein-Westfalen,NW,Jülich,/wiki/J%C3%BClich,52428
Nordrhein-Westfalen,NW,Kaarst,/wiki/Kaarst,41564
Nordrhein-Westfalen,NW,Kalkar,/wiki/Kalkar,47546
Nordrhein-Westfalen,NW,Kamen,/wiki/Kamen,59174
Nordrhein-Westfalen,NW,Kamp-Lintfort,/wiki/Kamp-Lintfort,47475
Nordrhein-Westfalen,NW,Kempen,/wiki/Kempen,47906
Nordrhein-Westfalen,NW,Kerpen,/wiki/Kerpen,"50169, 50170, 50171"
Nordrhein-Westfalen,NW,Kevelaer,/wiki/Kevelaer,47623–47627
Nordrhein-Westfalen,NW,Kierspe,/wiki/Kierspe,58566
Nordrhein-Westfalen,NW,Kleve,/wiki/Kleve,47533
Nordrhein-Westfalen,NW,Köln,/wiki/K%C3%B6ln,50667–51149
Nordrhein-Westfalen,NW,Königswinter,/wiki/K%C3%B6nigswinter,53639
Nordrhein-Westfalen,NW,Korschenbroich,/wiki/Korschenbroich,41352
Nordrhein-Westfalen,NW,Krefeld,/wiki/Krefeld,"47798–47809, 47829, 47839"
Nordrhein-Westfalen,NW,Kreuztal,/wiki/Kreuztal,57223
Nordrhein-Westfalen,NW,Lage,/wiki/Lage_(Lippe),32791
Nordrhein-Westfalen,NW,Langenfeld,/wiki/Langenfeld_(Rheinland),40764
Nordrhein-Westfalen,NW,Leichlingen,/wiki/Leichlingen_(Rheinland),42799
Nordrhein-Westfalen,NW,Lemgo,/wiki/Lemgo,32657
Nordrhein-Westfalen,NW,Lengerich,/wiki/Lengerich_(Westfalen),49525
Nordrhein-Westfalen,NW,Lennestadt,/wiki/Lennestadt,57368
Nordrhein-Westfalen,NW,Leverkusen,/wiki/Leverkusen,51371–51381
Nordrhein-Westfalen,NW,Lichtenau,/wiki/Lichtenau_(Westfalen),33162–33165
Nordrhein-Westfalen,NW,Linnich,/wiki/Linnich,52441
Nordrhein-Westfalen,NW,Lippstadt,/wiki/Lippstadt,59555–59558
Nordrhein-Westfalen,NW,Lohmar,/wiki/Lohmar,53797
Nordrhein-Westfalen,NW,Löhne,/wiki/L%C3%B6hne,32584
Nordrhein-Westfalen,NW,Lübbecke,/wiki/L%C3%BCbbecke,32312
Nordrhein-Westfalen,NW,Lüdenscheid,/wiki/L%C3%BCdenscheid,58507–58515
Nordrhein-Westfalen,NW,Lüdinghausen,/wiki/L%C3%BCdinghausen,59348
Nordrhein-Westfalen,NW,Lügde,/wiki/L%C3%BCgde,32676
Nordrhein-Westfalen,NW,Lünen,/wiki/L%C3%BCnen,"44532, 44534, 44536"
Nordrhein-Westfalen,NW,Marienmünster,/wiki/Marienm%C3%BCnster,37696
Nordrhein-Westfalen,NW,Marl,/wiki/Marl,"45768, 45770, 45772"
Nordrhein-Westfalen,NW,Marsberg,/wiki/Marsberg,34431
Nordrhein-Westfalen,NW,Mechernich,/wiki/Mechernich,53894
Nordrhein-Westfalen,NW,Meckenheim,/wiki/Meckenheim_(Rheinland),53340
Nordrhein-Westfalen,NW,Medebach,/wiki/Medebach,59964
Nordrhein-Westfalen,NW,Meerbusch,/wiki/Meerbusch,"40667, 40668, 40670"
Nordrhein-Westfalen,NW,Meinerzhagen,/wiki/Meinerzhagen,58540
Nordrhein-Westfalen,NW,Menden,/wiki/Menden_(Sauerland),"58706, 58708, 58710"
Nordrhein-Westfalen,NW,Meschede,/wiki/Meschede,59872
Nordrhein-Westfalen,NW,Mettmann,/wiki/Mettmann,40822
Nordrhein-Westfalen,NW,Minden,/wiki/Minden,"32423, 32425, 32427, 32429"
Nordrhein-Westfalen,NW,Moers,/wiki/Moers,"47441, 47443, 47445, 47447"
Nordrhein-Westfalen,NW,Mönchengladbach,/wiki/M%C3%B6nchengladbach,41061–41239
Nordrhein-Westfalen,NW,Monheim am Rhein,/wiki/Monheim_am_Rhein,40789
Nordrhein-Westfalen,NW,Monschau,/wiki/Monschau,52156
Nordrhein-Westfalen,NW,Mülheim an der Ruhr,/wiki/M%C3%BClheim_an_der_Ruhr,45468–45481
Nordrhein-Westfalen,NW,Münster,/wiki/M%C3%BCnster,48143–48167
Nordrhein-Westfalen,NW,Netphen,/wiki/Netphen,57250
Nordrhein-Westfalen,NW,Nettetal,/wiki/Nettetal,41334
Nordrhein-Westfalen,NW,Neuenrade,/wiki/Neuenrade,58809
Nordrhein-Westfalen,NW,Neukirchen-Vluyn,/wiki/Neukirchen-Vluyn,47506
Nordrhein-Westfalen,NW,Neuss,/wiki/Neuss,41460–41472
Nordrhein-Westfalen,NW,Nideggen,/wiki/Nideggen,52385
Nordrhein-Westfalen,NW,Niederkassel,/wiki/Niederkassel,53859
Nordrhein-Westfalen,NW,Nieheim,/wiki/Nieheim,33039
Nordrhein-Westfalen,NW,Oberhausen,/wiki/Oberhausen,"46045, 46047, 46049,"
Nordrhein-Westfalen,NW,Ochtrup,/wiki/Ochtrup,48607
Nordrhein-Westfalen,NW,Oelde,/wiki/Oelde,59302
Nordrhein-Westfalen,NW,Oer-Erkenschwick,/wiki/Oer-Erkenschwick,45739
Nordrhein-Westfalen,NW,Oerlinghausen,/wiki/Oerlinghausen,33813
Nordrhein-Westfalen,NW,Olfen,/wiki/Olfen,59399
Nordrhein-Westfalen,NW,Olpe,/wiki/Olpe,57462
Nordrhein-Westfalen,NW,Olsberg,/wiki/Olsberg,59939
Nordrhein-Westfalen,NW,Overath,/wiki/Overath,51491
Nordrhein-Westfalen,NW,Paderborn,/wiki/Paderborn,33098–33106
Nordrhein-Westfalen,NW,Petershagen,/wiki/Petershagen,32469
Nordrhein-Westfalen,NW,Plettenberg,/wiki/Plettenberg,58840
Nordrhein-Westfalen,NW,Porta Westfalica,/wiki/Porta_Westfalica_(Stadt),32457
Nordrhein-Westfalen,NW,Preußisch Oldendorf,/wiki/Preu%C3%9Fisch_Oldendorf,32361
Nordrhein-Westfalen,NW,Pulheim,/wiki/Pulheim,50259
Nordrhein-Westfalen,NW,Radevormwald,/wiki/Radevormwald,42477
Nordrhein-Westfalen,NW,Rahden,/wiki/Rahden,32369
Nordrhein-Westfalen,NW,Ratingen,/wiki/Ratingen,40878–40885
Nordrhein-Westfalen,NW,Recklinghausen,/wiki/Recklinghausen,"45657, 45659, 45661, 45663, 45665"
Nordrhein-Westfalen,NW,Rees,/wiki/Rees,46459
Nordrhein-Westfalen,NW,Remscheid,/wiki/Remscheid,"42853–42859, 42897, 42899"
Nordrhein-Westfalen,NW,Rheda-Wiedenbrück,/wiki/Rheda-Wiedenbr%C3%BCck,33378
Nordrhein-Westfalen,NW,Rhede,/wiki/Rhede,46414
Nordrhein-Westfalen,NW,Rheinbach,/wiki/Rheinbach,53359
Nordrhein-Westfalen,NW,Rheinberg,/wiki/Rheinberg,47495
Nordrhein-Westfalen,NW,Rheine,/wiki/Rheine,"48429, 48431, 48432"
Nordrhein-Westfalen,NW,Rietberg,/wiki/Rietberg,33397
Nordrhein-Westfalen,NW,Rösrath,/wiki/R%C3%B6srath,51503
Nordrhein-Westfalen,NW,Rüthen,/wiki/R%C3%BCthen,59602
Nordrhein-Westfalen,NW,Salzkotten,/wiki/Salzkotten,33154
Nordrhein-Westfalen,NW,Sankt Augustin,/wiki/Sankt_Augustin,53757
Nordrhein-Westfalen,NW,Sassenberg,/wiki/Sassenberg,48336
Nordrhein-Westfalen,NW,Schieder-Schwalenberg,/wiki/Schieder-Schwalenberg,32816
Nordrhein-Westfalen,NW,Schleiden,/wiki/Schleiden,53937
Nordrhein-Westfalen,NW,Schloß Holte-Stukenbrock,/wiki/Schlo%C3%9F_Holte-Stukenbrock,33758
Nordrhein-Westfalen,NW,Schmallenberg,/wiki/Schmallenberg,57392
Nordrhein-Westfalen,NW,Schwelm,/wiki/Schwelm,58332
Nordrhein-Westfalen,NW,Schwerte,/wiki/Schwerte,58239
Nordrhein-Westfalen,NW,Selm,/wiki/Selm,59379
Nordrhein-Westfalen,NW,Sendenhorst,/wiki/Sendenhorst,48324
Nordrhein-Westfalen,NW,Siegburg,/wiki/Siegburg,53721
Nordrhein-Westfalen,NW,Siegen,/wiki/Siegen,57072–57080
Nordrhein-Westfalen,NW,Soest,/wiki/Soest,59494
Nordrhein-Westfalen,NW,Solingen,/wiki/Solingen,"42651, 42653, 42655, 42657, 42659,"
Nordrhein-Westfalen,NW,Spenge,/wiki/Spenge,32139
Nordrhein-Westfalen,NW,Sprockhövel,/wiki/Sprockh%C3%B6vel,45549
Nordrhein-Westfalen,NW,Stadtlohn,/wiki/Stadtlohn,48703
Nordrhein-Westfalen,NW,Steinfurt,/wiki/Steinfurt,48565
Nordrhein-Westfalen,NW,Steinheim,/wiki/Steinheim_(Westfalen),32839
Nordrhein-Westfalen,NW,Stolberg,/wiki/Stolberg_(Rheinland),"52222, 52223, 52224"
Nordrhein-Westfalen,NW,Straelen,/wiki/Straelen,47638
Nordrhein-Westfalen,NW,Sundern,/wiki/Sundern_(Sauerland),"59846, 59831"
Nordrhein-Westfalen,NW,Tecklenburg,/wiki/Tecklenburg,49545
Nordrhein-Westfalen,NW,Telgte,/wiki/Telgte,48291
Nordrhein-Westfalen,NW,Tönisvorst,/wiki/T%C3%B6nisvorst,47918
Nordrhein-Westfalen,NW,Troisdorf,/wiki/Troisdorf,"53840, 53842, 53844"
Nordrhein-Westfalen,NW,Übach-Palenberg,/wiki/%C3%9Cbach-Palenberg,52531
Nordrhein-Westfalen,NW,Unna,/wiki/Unna,"59423, 59425, 59427"
Nordrhein-Westfalen,NW,Velbert,/wiki/Velbert,"42549, 42551, 42553, 42555"
Nordrhein-Westfalen,NW,Velen,/wiki/Velen,46342
Nordrhein-Westfalen,NW,Verl,/wiki/Verl,33415
Nordrhein-Westfalen,NW,Versmold,/wiki/Versmold,33775
Nordrhein-Westfalen,NW,Viersen,/wiki/Viersen,"41747, 41748, 41749, 41751"
Nordrhein-Westfalen,NW,Vlotho,/wiki/Vlotho,32602
Nordrhein-Westfalen,NW,Voerde,/wiki/Voerde_(Niederrhein),46562
Nordrhein-Westfalen,NW,Vreden,/wiki/Vreden,48691
Nordrhein-Westfalen,NW,Waldbröl,/wiki/Waldbr%C3%B6l,51545
Nordrhein-Westfalen,NW,Waltrop,/wiki/Waltrop,45731
Nordrhein-Westfalen,NW,Warburg,/wiki/Warburg,34414
Nordrhein-Westfalen,NW,Warendorf,/wiki/Warendorf,48231
Nordrhein-Westfalen,NW,Warstein,/wiki/Warstein,59581
Nordrhein-Westfalen,NW,Wassenberg,/wiki/Wassenberg,41849
Nordrhein-Westfalen,NW,Wegberg,/wiki/Wegberg,41844
Nordrhein-Westfalen,NW,Werdohl,/wiki/Werdohl,58791
Nordrhein-Westfalen,NW,Werl,/wiki/Werl,59457
Nordrhein-Westfalen,NW,Wermelskirchen,/wiki/Wermelskirchen,42929
Nordrhein-Westfalen,NW,Werne,/wiki/Werne,59368
Nordrhein-Westfalen,NW,Werther,/wiki/Werther_(Westf.),33824
Nordrhein-Westfalen,NW,Wesel,/wiki/Wesel,"46483, 46485, 46487"
Nordrhein-Westfalen,NW,Wesseling,/wiki/Wesseling,50389
Nordrhein-Westfalen,NW,Wetter,/wiki/Wetter_(Ruhr),58300
Nordrhein-Westfalen,NW,Wiehl,/wiki/Wiehl,51674
Nordrhein-Westfalen,NW,Willebadessen,/wiki/Willebadessen,34439
Nordrhein-Westfalen,NW,Willich,/wiki/Willich,47877
Nordrhein-Westfalen,NW,Winterberg,/wiki/Winterberg,59955
Nordrhein-Westfalen,NW,Wipperfürth,/wiki/Wipperf%C3%BCrth,51688
Nordrhein-Westfalen,NW,Witten,/wiki/Witten,58452–58456
Nordrhein-Westfalen,NW,Wülfrath,/wiki/W%C3%BClfrath,42489
Nordrhein-Westfalen,NW,Wuppertal,/wiki/Wuppertal,42103–42399
Nordrhein-Westfalen,NW,Würselen,/wiki/W%C3%BCrselen,52146
Nordrhein-Westfalen,NW,Xanten,/wiki/Xanten,46509
Nordrhein-Westfalen,NW,Zülpich,/wiki/Z%C3%BClpich,53909
Hessen,HE,Allendorf,/wiki/Allendorf_(Lumda),35469
Hessen,HE,Alsfeld,/wiki/Alsfeld,36304
Hessen,HE,Amöneburg,/wiki/Am%C3%B6neburg,35287
Hessen,HE,Aßlar,/wiki/A%C3%9Flar,"35614,"
Hessen,HE,Babenhausen,/wiki/Babenhausen_(Hessen),64832
Hessen,HE,Bad Arolsen,/wiki/Bad_Arolsen,34454
Hessen,HE,Bad Camberg,/wiki/Bad_Camberg,65520
Hessen,HE,Bad Hersfeld,/wiki/Bad_Hersfeld,36251
Hessen,HE,Bad Homburg vor der Höhe,/wiki/Bad_Homburg_vor_der_H%C3%B6he,"61348, 61350, 61352"
Hessen,HE,Bad Karlshafen,/wiki/Bad_Karlshafen,34385
Hessen,HE,Bad König,/wiki/Bad_K%C3%B6nig,64732
Hessen,HE,Bad Nauheim,/wiki/Bad_Nauheim,61231
Hessen,HE,Bad Orb,/wiki/Bad_Orb,63619
Hessen,HE,Bad Schwalbach,/wiki/Bad_Schwalbach,65307
Hessen,HE,Bad Soden am Taunus,/wiki/Bad_Soden_am_Taunus,65812
Hessen,HE,Bad Soden-Salmünster,/wiki/Bad_Soden-Salm%C3%BCnster,63628
Hessen,HE,Bad Sooden-Allendorf,/wiki/Bad_Sooden-Allendorf,37242
Hessen,HE,Bad Vilbel,/wiki/Bad_Vilbel,61118
Hessen,HE,Bad Wildungen,/wiki/Bad_Wildungen,34521–34537
Hessen,HE,Battenberg,/wiki/Battenberg_(Eder),35088
Hessen,HE,Baunatal,/wiki/Baunatal,34225
Hessen,HE,Bebra,/wiki/Bebra,36179
Hessen,HE,Bensheim,/wiki/Bensheim,64625
Hessen,HE,Biedenkopf,/wiki/Biedenkopf,35216
Hessen,HE,Borken,/wiki/Borken_(Hessen),34582
Hessen,HE,Braunfels,/wiki/Braunfels,35619
Hessen,HE,Breuberg,/wiki/Breuberg,64747
Hessen,HE,Bruchköbel,/wiki/Bruchk%C3%B6bel,63486
Hessen,HE,Büdingen,/wiki/B%C3%BCdingen,63654
Hessen,HE,Bürstadt,/wiki/B%C3%BCrstadt,68642
Hessen,HE,Butzbach,/wiki/Butzbach,35510
Hessen,HE,Darmstadt,/wiki/Darmstadt,64283–64297
Hessen,HE,Dieburg,/wiki/Dieburg,64807
Hessen,HE,Diemelstadt,/wiki/Diemelstadt,34474
Hessen,HE,Dietzenbach,/wiki/Dietzenbach,63128
Hessen,HE,Dillenburg,/wiki/Dillenburg,35683–35690
Hessen,HE,Dreieich,/wiki/Dreieich,63303
Hessen,HE,Eltville am Rhein,/wiki/Eltville_am_Rhein,65343–65347
Hessen,HE,Eppstein,/wiki/Eppstein,65817
Hessen,HE,Erbach,/wiki/Erbach_(Odenwald),"64711,"
Hessen,HE,Erlensee,/wiki/Erlensee,"63526,"
Hessen,HE,Eschborn,/wiki/Eschborn,65760
Hessen,HE,Eschwege,/wiki/Eschwege,37269
Hessen,HE,Felsberg,/wiki/Felsberg_(Hessen),34587
Hessen,HE,Flörsheim am Main,/wiki/Fl%C3%B6rsheim_am_Main,65439
Hessen,HE,Florstadt,/wiki/Florstadt,61197
Hessen,HE,Frankenau,/wiki/Frankenau,35109–35110
Hessen,HE,Frankenberg,/wiki/Frankenberg_(Eder),35066
Hessen,HE,Frankfurt am Main,/wiki/Frankfurt_am_Main,"60306–60599, 65929–65936"
Hessen,HE,Friedberg,/wiki/Friedberg_(Hessen),61169
Hessen,HE,Friedrichsdorf,/wiki/Friedrichsdorf,61381
Hessen,HE,Fritzlar,/wiki/Fritzlar,34560
Hessen,HE,Fulda,/wiki/Fulda,"36037, 36039, 36041, 36043"
Hessen,HE,Gedern,/wiki/Gedern,63688
Hessen,HE,Geisenheim,/wiki/Geisenheim,"65366,"
Hessen,HE,Gelnhausen,/wiki/Gelnhausen,"63571, 63589"
Hessen,HE,Gemünden,/wiki/Gem%C3%BCnden_(Wohra),35285
Hessen,HE,Gernsheim,/wiki/Gernsheim,64579
Hessen,HE,Gersfeld,/wiki/Gersfeld_(Rh%C3%B6n),36129
Hessen,HE,Gießen,/wiki/Gie%C3%9Fen,"35390, 35392, 35394, 35396, 35398"
Hessen,HE,Ginsheim-Gustavsburg,/wiki/Ginsheim-Gustavsburg,65462
Hessen,HE,Gladenbach,/wiki/Gladenbach,35075
Hessen,HE,Grebenau,/wiki/Grebenau,36323
Hessen,HE,Grebenstein,/wiki/Grebenstein,34393
Hessen,HE,Griesheim,/wiki/Griesheim,64347
Hessen,HE,Großalmerode,/wiki/Gro%C3%9Falmerode,37247
Hessen,HE,Groß-Bieberau,/wiki/Gro%C3%9F-Bieberau,"64401,"
Hessen,HE,Groß-Gerau,/wiki/Gro%C3%9F-Gerau,64501–64521
Hessen,HE,Groß-Umstadt,/wiki/Gro%C3%9F-Umstadt,64823
Hessen,HE,Grünberg,/wiki/Gr%C3%BCnberg_(Hessen),35305
Hessen,HE,Gudensberg,/wiki/Gudensberg,34281
Hessen,HE,Hadamar,/wiki/Hadamar,65589
Hessen,HE,Haiger,/wiki/Haiger,35708
Hessen,HE,Hanau,/wiki/Hanau,"63450, 63452, 63454, 63456, 63457"
Hessen,HE,Hattersheim am Main,/wiki/Hattersheim_am_Main,65795
Hessen,HE,Hatzfeld,/wiki/Hatzfeld_(Eder),35116
Hessen,HE,Heppenheim,/wiki/Heppenheim_(Bergstra%C3%9Fe),64646
Hessen,HE,Herborn,/wiki/Herborn,35745
Hessen,HE,Herbstein,/wiki/Herbstein,36358
Hessen,HE,Heringen,/wiki/Heringen_(Werra),36266
Hessen,HE,Hessisch Lichtenau,/wiki/Hessisch_Lichtenau,37230–37235
Hessen,HE,Heusenstamm,/wiki/Heusenstamm,63150
Hessen,HE,Hirschhorn,/wiki/Hirschhorn_(Neckar),"69434,"
Hessen,HE,Hochheim am Main,/wiki/Hochheim_am_Main,65239
Hessen,HE,Hofgeismar,/wiki/Hofgeismar,34369
Hessen,HE,Hofheim am Taunus,/wiki/Hofheim_am_Taunus,65719
Hessen,HE,Homberg,/wiki/Homberg_(Efze),34576
Hessen,HE,Homberg,/wiki/Homberg_(Ohm),35315
Hessen,HE,Hünfeld,/wiki/H%C3%BCnfeld,36088
Hessen,HE,Hungen,/wiki/Hungen,35410
Hessen,HE,Idstein,/wiki/Idstein,65510
Hessen,HE,Immenhausen,/wiki/Immenhausen,34376
Hessen,HE,Karben,/wiki/Karben,61184
Hessen,HE,Kassel,/wiki/Kassel,"34117–34134, "
Hessen,HE,Kelkheim,/wiki/Kelkheim_(Taunus),65779
Hessen,HE,Kelsterbach,/wiki/Kelsterbach,65451
Hessen,HE,Kirchhain,/wiki/Kirchhain,35274
Hessen,HE,Kirtorf,/wiki/Kirtorf,"36320,"
Hessen,HE,Königstein im Taunus,/wiki/K%C3%B6nigstein_im_Taunus,61462
Hessen,HE,Korbach,/wiki/Korbach,"34497, 34513"
Hessen,HE,Kronberg im Taunus,/wiki/Kronberg_im_Taunus,61476
Hessen,HE,Lampertheim,/wiki/Lampertheim,68623
Hessen,HE,Langen,/wiki/Langen_(Hessen),63225
Hessen,HE,Langenselbold,/wiki/Langenselbold,63505
Hessen,HE,Laubach,/wiki/Laubach,35321
Hessen,HE,Lauterbach,/wiki/Lauterbach_(Hessen),36341
Hessen,HE,Leun,/wiki/Leun,35638
Hessen,HE,Lich,/wiki/Lich,35423
Hessen,HE,Lichtenfels,/wiki/Lichtenfels_(Hessen),35104
Hessen,HE,Liebenau,/wiki/Liebenau_(Hessen),34396
Hessen,HE,Limburg an der Lahn,/wiki/Limburg_an_der_Lahn,65549–65556
Hessen,HE,Linden,/wiki/Linden_(Hessen),35440
Hessen,HE,Lindenfels,/wiki/Lindenfels,"64678,"
Hessen,HE,Lollar,/wiki/Lollar,35457
Hessen,HE,Lorch,/wiki/Lorch_(Rheingau),65391
Hessen,HE,Lorsch,/wiki/Lorsch,64653
Hessen,HE,Maintal,/wiki/Maintal,63477
Hessen,HE,Marburg,/wiki/Marburg,"35037, 35039, 35041, 35043"
Hessen,HE,Melsungen,/wiki/Melsungen,34212
Hessen,HE,Michelstadt,/wiki/Michelstadt,"64720,"
Hessen,HE,Mörfelden-Walldorf,/wiki/M%C3%B6rfelden-Walldorf,64546
Hessen,HE,Mühlheim am Main,/wiki/M%C3%BChlheim_am_Main,63165
Hessen,HE,Münzenberg,/wiki/M%C3%BCnzenberg,35516
Hessen,HE,Naumburg,/wiki/Naumburg_(Hessen),34311
Hessen,HE,Neckarsteinach,/wiki/Neckarsteinach,69239
Hessen,HE,Neu-Anspach,/wiki/Neu-Anspach,61267
Hessen,HE,Neu-Isenburg,/wiki/Neu-Isenburg,63263
Hessen,HE,Neukirchen,/wiki/Neukirchen_(Kn%C3%BCll),34626
Hessen,HE,Neustadt,/wiki/Neustadt_(Hessen),35279
Hessen,HE,Nidda,/wiki/Nidda,63667
Hessen,HE,Niddatal,/wiki/Niddatal,"61194,"
Hessen,HE,Nidderau,/wiki/Nidderau,61130
Hessen,HE,Niedenstein,/wiki/Niedenstein,34305
Hessen,HE,Ober-Ramstadt,/wiki/Ober-Ramstadt,64372
Hessen,HE,Obertshausen,/wiki/Obertshausen,63179
Hessen,HE,Oberursel,/wiki/Oberursel_(Taunus),61440
Hessen,HE,Oberzent,/wiki/Oberzent,64760
Hessen,HE,Oestrich-Winkel,/wiki/Oestrich-Winkel,65375
Hessen,HE,Offenbach am Main,/wiki/Offenbach_am_Main,63065–63075
Hessen,HE,Ortenberg,/wiki/Ortenberg_(Hessen),63683
Hessen,HE,Pfungstadt,/wiki/Pfungstadt,64319
Hessen,HE,Pohlheim,/wiki/Pohlheim,35415
Hessen,HE,Raunheim,/wiki/Raunheim,65479
Hessen,HE,Rauschenberg,/wiki/Rauschenberg,35282
Hessen,HE,Reichelsheim,/wiki/Reichelsheim_(Wetterau),61203
Hessen,HE,Reinheim,/wiki/Reinheim,"64354,"
Hessen,HE,Riedstadt,/wiki/Riedstadt,64560
Hessen,HE,Rödermark,/wiki/R%C3%B6dermark,63322
Hessen,HE,Rodgau,/wiki/Rodgau,63110
Hessen,HE,Romrod,/wiki/Romrod,36329
Hessen,HE,Rosbach vor der Höhe,/wiki/Rosbach_vor_der_H%C3%B6he,61191
Hessen,HE,Rosenthal,/wiki/Rosenthal_(Hessen),35119
Hessen,HE,Rotenburg an der Fulda,/wiki/Rotenburg_an_der_Fulda,36199
Hessen,HE,Rüdesheim am Rhein,/wiki/R%C3%BCdesheim_am_Rhein,65385
Hessen,HE,Runkel,/wiki/Runkel,65594
Hessen,HE,Rüsselsheim am Main,/wiki/R%C3%BCsselsheim_am_Main,65428
Hessen,HE,Schlitz,/wiki/Schlitz_(Vogelsbergkreis),36110
Hessen,HE,Schlüchtern,/wiki/Schl%C3%BCchtern,36381
Hessen,HE,Schotten,/wiki/Schotten_(Stadt),63679
Hessen,HE,Schwalbach am Taunus,/wiki/Schwalbach_am_Taunus,65824
Hessen,HE,Schwalmstadt,/wiki/Schwalmstadt,34613
Hessen,HE,Schwarzenborn,/wiki/Schwarzenborn_(Kn%C3%BCll),34639
Hessen,HE,Seligenstadt,/wiki/Seligenstadt,63500
Hessen,HE,Solms,/wiki/Solms,35606
Hessen,HE,Sontra,/wiki/Sontra,36205
Hessen,HE,Spangenberg,/wiki/Spangenberg,34286
Hessen,HE,Stadtallendorf,/wiki/Stadtallendorf,35260
Hessen,HE,Staufenberg,/wiki/Staufenberg_(Hessen),35460
Hessen,HE,Steinau an der Straße,/wiki/Steinau_an_der_Stra%C3%9Fe,36396
Hessen,HE,Steinbach,/wiki/Steinbach_(Taunus),61449
Hessen,HE,Tann,/wiki/Tann_(Rh%C3%B6n),36142
Hessen,HE,Taunusstein,/wiki/Taunusstein,65232
Hessen,HE,Trendelburg,/wiki/Trendelburg,34388
Hessen,HE,Ulrichstein,/wiki/Ulrichstein,35327
Hessen,HE,Usingen,/wiki/Usingen,61250
Hessen,HE,Vellmar,/wiki/Vellmar,34246
Hessen,HE,Viernheim,/wiki/Viernheim,68519
Hessen,HE,Volkmarsen,/wiki/Volkmarsen,34471
Hessen,HE,Wächtersbach,/wiki/W%C3%A4chtersbach,63607
Hessen,HE,Waldeck,/wiki/Waldeck_(Stadt),"34513,"
Hessen,HE,Waldkappel,/wiki/Waldkappel,37284
Hessen,HE,Wanfried,/wiki/Wanfried,37281
Hessen,HE,Weilburg,/wiki/Weilburg,35781
Hessen,HE,Weiterstadt,/wiki/Weiterstadt,64331
Hessen,HE,Wetter,/wiki/Wetter_(Hessen),35083
Hessen,HE,Wetzlar,/wiki/Wetzlar,35576–35586
Hessen,HE,Wiesbaden,/wiki/Wiesbaden,"65183–65207,"
Hessen,HE,Witzenhausen,/wiki/Witzenhausen,37213–37218
Hessen,HE,Wolfhagen,/wiki/Wolfhagen,34466
Hessen,HE,Zierenberg,/wiki/Zierenberg,34289
Hessen,HE,Zwingenberg,/wiki/Zwingenberg_(Bergstra%C3%9Fe),64673
Sachsen,SN,Adorf,/wiki/Adorf/Vogtl.,08626
Sachsen,SN,Altenberg,/wiki/Altenberg_(Erzgebirge),"01773,"
Sachsen,SN,Annaberg-Buchholz,/wiki/Annaberg-Buchholz,09456
Sachsen,SN,Aue-Bad Schlema,/wiki/Aue-Bad_Schlema,08280 
Sachsen,SN,Auerbach,/wiki/Auerbach/Vogtl.,08209
Sachsen,SN,Augustusburg,/wiki/Augustusburg,09573
Sachsen,SN,Bad Düben,/wiki/Bad_D%C3%BCben,04849
Sachsen,SN,Bad Elster,/wiki/Bad_Elster,08645
Sachsen,SN,Bad Gottleuba-Berggießhübel,/wiki/Bad_Gottleuba-Berggie%C3%9Fh%C3%BCbel,01816
Sachsen,SN,Bad Lausick,/wiki/Bad_Lausick,04651
Sachsen,SN,Bad Muskau,/wiki/Bad_Muskau,02953
Sachsen,SN,Bad Schandau,/wiki/Bad_Schandau,01814
Sachsen,SN,Bautzen,/wiki/Bautzen,02625
Sachsen,SN,Belgern-Schildau,/wiki/Belgern-Schildau,04874
Sachsen,SN,Bernsdorf,/wiki/Bernsdorf_(Oberlausitz),02994
Sachsen,SN,Bernstadt a. d. Eigen,/wiki/Bernstadt_a._d._Eigen,02748
Sachsen,SN,Bischofswerda,/wiki/Bischofswerda,01877
Sachsen,SN,Böhlen,/wiki/B%C3%B6hlen_(Sachsen),04564
Sachsen,SN,Borna,/wiki/Borna,04552
Sachsen,SN,Brand-Erbisdorf,/wiki/Brand-Erbisdorf,09618
Sachsen,SN,Brandis,/wiki/Brandis,"04821,"
Sachsen,SN,Burgstädt,/wiki/Burgst%C3%A4dt,09217
Sachsen,SN,Chemnitz,/wiki/Chemnitz,"09111–09131, 09224, "
Sachsen,SN,Colditz,/wiki/Colditz,04680
Sachsen,SN,Coswig,/wiki/Coswig_(Sachsen),01640
Sachsen,SN,Crimmitschau,/wiki/Crimmitschau,08451
Sachsen,SN,Dahlen,/wiki/Dahlen_(Sachsen),04774
Sachsen,SN,Delitzsch,/wiki/Delitzsch,04509
Sachsen,SN,Dippoldiswalde,/wiki/Dippoldiswalde,01744
Sachsen,SN,Döbeln,/wiki/D%C3%B6beln,04720
Sachsen,SN,Dohna,/wiki/Dohna,01809
Sachsen,SN,Dommitzsch,/wiki/Dommitzsch,04880
Sachsen,SN,Dresden,/wiki/Dresden,"01067–01328, 01465"
Sachsen,SN,Ebersbach-Neugersdorf,/wiki/Ebersbach-Neugersdorf,02730 
Sachsen,SN,Ehrenfriedersdorf,/wiki/Ehrenfriedersdorf,09427
Sachsen,SN,Eibenstock,/wiki/Eibenstock,08309
Sachsen,SN,Eilenburg,/wiki/Eilenburg,04838
Sachsen,SN,Elsterberg,/wiki/Elsterberg,07985
Sachsen,SN,Elstra,/wiki/Elstra,01920
Sachsen,SN,Elterlein,/wiki/Elterlein,09481
Sachsen,SN,Falkenstein,/wiki/Falkenstein/Vogtl.,"08223,"
Sachsen,SN,Flöha,/wiki/Fl%C3%B6ha,09557
Sachsen,SN,Frankenberg,/wiki/Frankenberg/Sa.,09669
Sachsen,SN,Frauenstein,/wiki/Frauenstein_(Erzgebirge),09623
Sachsen,SN,Freiberg,/wiki/Freiberg,"09599, 09596"
Sachsen,SN,Freital,/wiki/Freital,01705
Sachsen,SN,Frohburg,/wiki/Frohburg,04654
Sachsen,SN,Geithain,/wiki/Geithain,04643
Sachsen,SN,Geringswalde,/wiki/Geringswalde,09326
Sachsen,SN,Geyer,/wiki/Geyer,09468
Sachsen,SN,Glashütte,/wiki/Glash%C3%BCtte_(Sachsen),01768
Sachsen,SN,Glauchau,/wiki/Glauchau,08371
Sachsen,SN,Görlitz,/wiki/G%C3%B6rlitz,02826–02828
Sachsen,SN,Grimma,/wiki/Grimma,04668
Sachsen,SN,Gröditz,/wiki/Gr%C3%B6ditz,01609
Sachsen,SN,Groitzsch,/wiki/Groitzsch,04539
Sachsen,SN,Großenhain,/wiki/Gro%C3%9Fenhain,01558
Sachsen,SN,Großröhrsdorf,/wiki/Gro%C3%9Fr%C3%B6hrsdorf,01900
Sachsen,SN,Großschirma,/wiki/Gro%C3%9Fschirma,09603
Sachsen,SN,Grünhain-Beierfeld,/wiki/Gr%C3%BCnhain-Beierfeld,08344
Sachsen,SN,Hainichen,/wiki/Hainichen,09661
Sachsen,SN,Hartenstein,/wiki/Hartenstein_(Sachsen),08118
Sachsen,SN,Hartha,/wiki/Hartha,04746
Sachsen,SN,Heidenau,/wiki/Heidenau_(Sachsen),01801–01809
Sachsen,SN,Herrnhut,/wiki/Herrnhut,02747 
Sachsen,SN,Hohenstein-Ernstthal,/wiki/Hohenstein-Ernstthal,09337
Sachsen,SN,Hohnstein,/wiki/Hohnstein_(S%C3%A4chsische_Schweiz),01848
Sachsen,SN,Hoyerswerda,/wiki/Hoyerswerda,02977
Sachsen,SN,Johanngeorgenstadt,/wiki/Johanngeorgenstadt,08349
Sachsen,SN,Jöhstadt,/wiki/J%C3%B6hstadt,09477
Sachsen,SN,Kamenz,/wiki/Kamenz,01917
Sachsen,SN,Kirchberg,/wiki/Kirchberg_(Sachsen),08107
Sachsen,SN,Kitzscher,/wiki/Kitzscher,04567
Sachsen,SN,Klingenthal,/wiki/Klingenthal,"08248, "
Sachsen,SN,Königsbrück,/wiki/K%C3%B6nigsbr%C3%BCck,01936
Sachsen,SN,Königstein,/wiki/K%C3%B6nigstein_(S%C3%A4chsische_Schweiz),01824
Sachsen,SN,Lauta,/wiki/Lauta,02991
Sachsen,SN,Lauter-Bernsbach,/wiki/Lauter-Bernsbach,08315
Sachsen,SN,Leipzig,/wiki/Leipzig,04103–04357
Sachsen,SN,Leisnig,/wiki/Leisnig,04703
Sachsen,SN,Lengenfeld,/wiki/Lengenfeld_(Vogtland),08485
Sachsen,SN,Lichtenstein,/wiki/Lichtenstein/Sa.,09350
Sachsen,SN,Liebstadt,/wiki/Liebstadt,01825
Sachsen,SN,Limbach-Oberfrohna,/wiki/Limbach-Oberfrohna,09212
Sachsen,SN,Löbau,/wiki/L%C3%B6bau,02708
Sachsen,SN,Lommatzsch,/wiki/Lommatzsch,01623
Sachsen,SN,Lößnitz,/wiki/L%C3%B6%C3%9Fnitz_(Erzgebirge),08294
Sachsen,SN,Lugau,/wiki/Lugau,09385
Sachsen,SN,Lunzenau,/wiki/Lunzenau,09328
Sachsen,SN,Marienberg,/wiki/Marienberg,09496
Sachsen,SN,Markkleeberg,/wiki/Markkleeberg,04416
Sachsen,SN,Markneukirchen,/wiki/Markneukirchen,08258
Sachsen,SN,Markranstädt,/wiki/Markranst%C3%A4dt,04420
Sachsen,SN,Meerane,/wiki/Meerane,08393
Sachsen,SN,Meißen,/wiki/Mei%C3%9Fen,01662
Sachsen,SN,Mittweida,/wiki/Mittweida,09648
Sachsen,SN,Mügeln,/wiki/M%C3%BCgeln,04769
Sachsen,SN,Naunhof,/wiki/Naunhof,04683
Sachsen,SN,Netzschkau,/wiki/Netzschkau,08491
Sachsen,SN,Neusalza-Spremberg,/wiki/Neusalza-Spremberg,02742
Sachsen,SN,Neustadt in Sachsen,/wiki/Neustadt_in_Sachsen,01841–01844
Sachsen,SN,Niesky,/wiki/Niesky,02906
Sachsen,SN,Nossen,/wiki/Nossen,01683
Sachsen,SN,Oberlungwitz,/wiki/Oberlungwitz,09353
Sachsen,SN,Oberwiesenthal,/wiki/Oberwiesenthal,09484
Sachsen,SN,Oederan,/wiki/Oederan,09569
Sachsen,SN,Oelsnitz,/wiki/Oelsnitz/Erzgeb.,09376
Sachsen,SN,Oelsnitz,/wiki/Oelsnitz/Vogtl.,08606
Sachsen,SN,Olbernhau,/wiki/Olbernhau,09526
Sachsen,SN,Oschatz,/wiki/Oschatz,04758
Sachsen,SN,Ostritz,/wiki/Ostritz,02899
Sachsen,SN,Pausa-Mühltroff,/wiki/Pausa-M%C3%BChltroff,"07919, 07952, "
Sachsen,SN,Pegau,/wiki/Pegau,04523
Sachsen,SN,Penig,/wiki/Penig,09322
Sachsen,SN,Pirna,/wiki/Pirna,01796
Sachsen,SN,Plauen,/wiki/Plauen,"08523, 08525, 08527, 08529, "
Sachsen,SN,Pockau-Lengefeld,/wiki/Pockau-Lengefeld,09509
Sachsen,SN,Pulsnitz,/wiki/Pulsnitz,01896
Sachsen,SN,Rabenau,/wiki/Rabenau_(Sachsen),01734
Sachsen,SN,Radeberg,/wiki/Radeberg,01454
Sachsen,SN,Radebeul,/wiki/Radebeul,01445
Sachsen,SN,Radeburg,/wiki/Radeburg,01468–01471
Sachsen,SN,Regis-Breitingen,/wiki/Regis-Breitingen,04565
Sachsen,SN,Reichenbach im Vogtland,/wiki/Reichenbach_im_Vogtland,"08468,"
Sachsen,SN,Reichenbach,/wiki/Reichenbach/O.L.,02894 
Sachsen,SN,Riesa,/wiki/Riesa,"01587, 01589, 01591"
Sachsen,SN,Rochlitz,/wiki/Rochlitz,09306
Sachsen,SN,Rodewisch,/wiki/Rodewisch,08228
Sachsen,SN,Roßwein,/wiki/Ro%C3%9Fwein,04741
Sachsen,SN,Rötha,/wiki/R%C3%B6tha,04571
Sachsen,SN,Rothenburg,/wiki/Rothenburg/Oberlausitz,02929
Sachsen,SN,Sayda,/wiki/Sayda,09619
Sachsen,SN,Scheibenberg,/wiki/Scheibenberg,09481
Sachsen,SN,Schirgiswalde-Kirschau,/wiki/Schirgiswalde-Kirschau,02681
Sachsen,SN,Schkeuditz,/wiki/Schkeuditz,04435
Sachsen,SN,Schlettau,/wiki/Schlettau,09487
Sachsen,SN,Schneeberg,/wiki/Schneeberg_(Erzgebirge),08289
Sachsen,SN,Schöneck,/wiki/Sch%C3%B6neck/Vogtl.,08261
Sachsen,SN,Schwarzenberg,/wiki/Schwarzenberg/Erzgeb.,08340
Sachsen,SN,Sebnitz,/wiki/Sebnitz,01851–01855
Sachsen,SN,Seifhennersdorf,/wiki/Seifhennersdorf,02782
Sachsen,SN,Stadt Wehlen,/wiki/Stadt_Wehlen,01829
Sachsen,SN,Stollberg,/wiki/Stollberg/Erzgeb.,09366
Sachsen,SN,Stolpen,/wiki/Stolpen,01833
Sachsen,SN,Strehla,/wiki/Strehla,01616
Sachsen,SN,Taucha,/wiki/Taucha,04425
Sachsen,SN,Thalheim,/wiki/Thalheim/Erzgeb.,09380
Sachsen,SN,Tharandt,/wiki/Tharandt,01737
Sachsen,SN,Thum,/wiki/Thum,09419
Sachsen,SN,Torgau,/wiki/Torgau,"04860, 04861, 04889"
Sachsen,SN,Trebsen,/wiki/Trebsen/Mulde,04687
Sachsen,SN,Treuen,/wiki/Treuen,08233
Sachsen,SN,Waldenburg,/wiki/Waldenburg_(Sachsen),08396
Sachsen,SN,Waldheim,/wiki/Waldheim,04736
Sachsen,SN,Weißenberg,/wiki/Wei%C3%9Fenberg,02627
Sachsen,SN,Weißwasser,/wiki/Wei%C3%9Fwasser/Oberlausitz,02943
Sachsen,SN,Werdau,/wiki/Werdau,08412
Sachsen,SN,Wildenfels,/wiki/Wildenfels,08134
Sachsen,SN,Wilkau-Haßlau,/wiki/Wilkau-Ha%C3%9Flau,08112
Sachsen,SN,Wilsdruff,/wiki/Wilsdruff,01723 
Sachsen,SN,Wilthen,/wiki/Wilthen,02679–02681
Sachsen,SN,Wittichenau,/wiki/Wittichenau,02997
Sachsen,SN,Wolkenstein,/wiki/Wolkenstein_(Erzgebirge),09429
Sachsen,SN,Wurzen,/wiki/Wurzen,04808
Sachsen,SN,Zittau,/wiki/Zittau,"02763,"
Sachsen,SN,Zschopau,/wiki/Zschopau,"09405,"
Sachsen,SN,Zwenkau,/wiki/Zwenkau,04442
Sachsen,SN,Zwickau,/wiki/Zwickau,"08056, 08058, 08060, 08062, 08064, 08066"
Sachsen,SN,Zwönitz,/wiki/Zw%C3%B6nitz,08297
Niedersachsen,NI,Achim,/wiki/Achim_(Landkreis_Verden),28832
Niedersachsen,NI,Alfeld,/wiki/Alfeld_(Leine),31061
Niedersachsen,NI,Aurich,/wiki/Aurich,"26603, 26605, 26607"
Niedersachsen,NI,Bad Bentheim,/wiki/Bad_Bentheim,48455
Niedersachsen,NI,Bad Bevensen,/wiki/Bad_Bevensen,29549
Niedersachsen,NI,Bad Fallingbostel,/wiki/Bad_Fallingbostel,29683
Niedersachsen,NI,Bad Gandersheim,/wiki/Bad_Gandersheim,37581
Niedersachsen,NI,Bad Harzburg,/wiki/Bad_Harzburg,38667
Niedersachsen,NI,Bad Iburg,/wiki/Bad_Iburg,49186
Niedersachsen,NI,Bad Lauterberg im Harz,/wiki/Bad_Lauterberg_im_Harz,37431
Niedersachsen,NI,Bad Münder am Deister,/wiki/Bad_M%C3%BCnder_am_Deister,31848
Niedersachsen,NI,Bad Nenndorf,/wiki/Bad_Nenndorf,31542
Niedersachsen,NI,Bad Pyrmont,/wiki/Bad_Pyrmont,31812
Niedersachsen,NI,Bad Sachsa,/wiki/Bad_Sachsa,37441
Niedersachsen,NI,Bad Salzdetfurth,/wiki/Bad_Salzdetfurth,31162
Niedersachsen,NI,Barsinghausen,/wiki/Barsinghausen,30890
Niedersachsen,NI,Bassum,/wiki/Bassum,27211
Niedersachsen,NI,Bergen,/wiki/Bergen_(Landkreis_Celle),29303
Niedersachsen,NI,Bersenbrück,/wiki/Bersenbr%C3%BCck,49593
Niedersachsen,NI,Bleckede,/wiki/Bleckede,"21354, "
Niedersachsen,NI,Bockenem,/wiki/Bockenem,31167
Niedersachsen,NI,Bodenwerder,/wiki/Bodenwerder,37619
Niedersachsen,NI,Borkum,/wiki/Borkum,26757
Niedersachsen,NI,Brake,/wiki/Brake_(Unterweser),26919
Niedersachsen,NI,Bramsche,/wiki/Bramsche,49565
Niedersachsen,NI,Braunlage,/wiki/Braunlage,"38700, "
Niedersachsen,NI,Braunschweig,/wiki/Braunschweig,38100–38126
Niedersachsen,NI,Bremervörde,/wiki/Bremerv%C3%B6rde,27432
Niedersachsen,NI,Buchholz in der Nordheide,/wiki/Buchholz_in_der_Nordheide,21244
Niedersachsen,NI,Bückeburg,/wiki/B%C3%BCckeburg,31675
Niedersachsen,NI,Burgdorf,/wiki/Burgdorf_(Region_Hannover),31303
Niedersachsen,NI,Burgwedel,/wiki/Burgwedel,30938
Niedersachsen,NI,Buxtehude,/wiki/Buxtehude,21614
Niedersachsen,NI,Celle,/wiki/Celle,29221–29229
Niedersachsen,NI,Clausthal-Zellerfeld,/wiki/Clausthal-Zellerfeld,"38678, 38707, 38709, 38667"
Niedersachsen,NI,Cloppenburg,/wiki/Cloppenburg,49661
Niedersachsen,NI,Cuxhaven,/wiki/Cuxhaven,"27472, 27474, 27476, 27478"
Niedersachsen,NI,Damme,/wiki/Damme_(D%C3%BCmmer),49401
Niedersachsen,NI,Dannenberg,/wiki/Dannenberg_(Elbe),29451
Niedersachsen,NI,Dassel,/wiki/Dassel,37586
Niedersachsen,NI,Delmenhorst,/wiki/Delmenhorst,"27749, 27751, 27753, 27755"
Niedersachsen,NI,Diepholz,/wiki/Diepholz,49356
Niedersachsen,NI,Dinklage,/wiki/Dinklage,49413
Niedersachsen,NI,Dissen am Teutoburger Wald,/wiki/Dissen_am_Teutoburger_Wald,49201
Niedersachsen,NI,Dransfeld,/wiki/Dransfeld,"37125,37127"
Niedersachsen,NI,Duderstadt,/wiki/Duderstadt,37115
Niedersachsen,NI,Einbeck,/wiki/Einbeck,37574
Niedersachsen,NI,Elsfleth,/wiki/Elsfleth,26931
Niedersachsen,NI,Elze,/wiki/Elze,31008
Niedersachsen,NI,Emden,/wiki/Emden,"26721, 26723, 26725"
Niedersachsen,NI,Eschershausen,/wiki/Eschershausen,37632
Niedersachsen,NI,Esens,/wiki/Esens,26427
Niedersachsen,NI,Freren,/wiki/Freren,49832
Niedersachsen,NI,Friesoythe,/wiki/Friesoythe,26169
Niedersachsen,NI,Fürstenau,/wiki/F%C3%BCrstenau,49584
Niedersachsen,NI,Garbsen,/wiki/Garbsen,"30823, 30826, 30827"
Niedersachsen,NI,Geestland,/wiki/Geestland,"27607, 27624"
Niedersachsen,NI,Gehrden,/wiki/Gehrden,30989
Niedersachsen,NI,Georgsmarienhütte,/wiki/Georgsmarienh%C3%BCtte,49124
Niedersachsen,NI,Gifhorn,/wiki/Gifhorn,38518
Niedersachsen,NI,Goslar,/wiki/Goslar,"38640, 38642, 38644, 38690"
Niedersachsen,NI,Göttingen,/wiki/G%C3%B6ttingen,37001–37099
Niedersachsen,NI,Gronau,/wiki/Gronau_(Leine),31028
Niedersachsen,NI,Hameln,/wiki/Hameln,"31785, 31787, 31789"
Niedersachsen,NI,Hannover,/wiki/Hannover,"30159–30179,"
Niedersachsen,NI,Hann. Münden,/wiki/Hann._M%C3%BCnden,34346
Niedersachsen,NI,Hardegsen,/wiki/Hardegsen,37181
Niedersachsen,NI,Haren,/wiki/Haren_(Ems),49733
Niedersachsen,NI,Haselünne,/wiki/Hasel%C3%BCnne,49740
Niedersachsen,NI,Helmstedt,/wiki/Helmstedt,"38350, "
Niedersachsen,NI,Hemmingen,/wiki/Hemmingen_(Niedersachsen),30966
Niedersachsen,NI,Hemmoor,/wiki/Hemmoor,21745
Niedersachsen,NI,Herzberg am Harz,/wiki/Herzberg_am_Harz,"37412, 37434"
Niedersachsen,NI,Hessisch Oldendorf,/wiki/Hessisch_Oldendorf,"31840, 31833"
Niedersachsen,NI,Hildesheim,/wiki/Hildesheim,31134–31141
Niedersachsen,NI,Hitzacker,/wiki/Hitzacker_(Elbe),29456
Niedersachsen,NI,Holzminden,/wiki/Holzminden,37603
Niedersachsen,NI,Hoya,/wiki/Hoya,27318
Niedersachsen,NI,Jever,/wiki/Jever,26441
Niedersachsen,NI,Königslutter am Elm,/wiki/K%C3%B6nigslutter_am_Elm,38154
Niedersachsen,NI,Laatzen,/wiki/Laatzen,30880
Niedersachsen,NI,Langelsheim,/wiki/Langelsheim,"38685, 38729 (Lutter)"
Niedersachsen,NI,Langenhagen,/wiki/Langenhagen,"30851, 30853, 30855, "
Niedersachsen,NI,Leer,/wiki/Leer_(Ostfriesland),26789
Niedersachsen,NI,Lehrte,/wiki/Lehrte,31275
Niedersachsen,NI,Lingen,/wiki/Lingen_(Ems),"49808, 49809, 49811"
Niedersachsen,NI,Lohne,/wiki/Lohne_(Oldenburg),49393
Niedersachsen,NI,Löningen,/wiki/L%C3%B6ningen,49624
Niedersachsen,NI,Lüchow,/wiki/L%C3%BCchow_(Wendland),29439
Niedersachsen,NI,Lüneburg,/wiki/L%C3%BCneburg,"21335, 21337, 21339, 21391"
Niedersachsen,NI,Melle,/wiki/Melle,"49324, 49326, 49328"
Niedersachsen,NI,Meppen,/wiki/Meppen,49716
Niedersachsen,NI,Moringen,/wiki/Moringen,37186
Niedersachsen,NI,Munster,/wiki/Munster,29633
Niedersachsen,NI,Neuenhaus,/wiki/Neuenhaus,49828
Niedersachsen,NI,Neustadt am Rübenberge,/wiki/Neustadt_am_R%C3%BCbenberge,31535
Niedersachsen,NI,Nienburg,/wiki/Nienburg/Weser,31582
Niedersachsen,NI,Norden,/wiki/Norden_(Ostfriesland),26506
Niedersachsen,NI,Nordenham,/wiki/Nordenham,26954
Niedersachsen,NI,Norderney,/wiki/Norderney,26548
Niedersachsen,NI,Nordhorn,/wiki/Nordhorn,"48527, 48529, 48531"
Niedersachsen,NI,Northeim,/wiki/Northeim,37154
Niedersachsen,NI,Obernkirchen,/wiki/Obernkirchen,31683
Niedersachsen,NI,Oldenburg,/wiki/Oldenburg_(Oldb),26121–26135
Niedersachsen,NI,Osnabrück,/wiki/Osnabr%C3%BCck,49074–49090
Niedersachsen,NI,Osterholz-Scharmbeck,/wiki/Osterholz-Scharmbeck,27711
Niedersachsen,NI,Osterode am Harz,/wiki/Osterode_am_Harz,37520
Niedersachsen,NI,Otterndorf,/wiki/Otterndorf,21762
Niedersachsen,NI,Papenburg,/wiki/Papenburg,26871
Niedersachsen,NI,Pattensen,/wiki/Pattensen,30982
Niedersachsen,NI,Peine,/wiki/Peine,"31224, 31226, 31228"
Niedersachsen,NI,Quakenbrück,/wiki/Quakenbr%C3%BCck,49610
Niedersachsen,NI,Rehburg-Loccum,/wiki/Rehburg-Loccum,31547
Niedersachsen,NI,Rethem,/wiki/Rethem_(Aller),27336
Niedersachsen,NI,Rinteln,/wiki/Rinteln,31737
Niedersachsen,NI,Rodenberg,/wiki/Rodenberg,31552
Niedersachsen,NI,Ronnenberg,/wiki/Ronnenberg,30952
Niedersachsen,NI,Rotenburg,/wiki/Rotenburg_(W%C3%BCmme),27356
Niedersachsen,NI,Sachsenhagen,/wiki/Sachsenhagen,31553
Niedersachsen,NI,Salzgitter,/wiki/Salzgitter,"38226, 38228, 38229,"
Niedersachsen,NI,Sarstedt,/wiki/Sarstedt,31157
Niedersachsen,NI,Schnackenburg,/wiki/Schnackenburg,29493
Niedersachsen,NI,Schneverdingen,/wiki/Schneverdingen,29640
Niedersachsen,NI,Schöningen,/wiki/Sch%C3%B6ningen,38364
Niedersachsen,NI,Schöppenstedt,/wiki/Sch%C3%B6ppenstedt,"38170, 38154"
Niedersachsen,NI,Schortens,/wiki/Schortens,26419
Niedersachsen,NI,Schüttorf,/wiki/Sch%C3%BCttorf,48465
Niedersachsen,NI,Seelze,/wiki/Seelze,30926
Niedersachsen,NI,Seesen,/wiki/Seesen,38723
Niedersachsen,NI,Sehnde,/wiki/Sehnde,31319
Niedersachsen,NI,Soltau,/wiki/Soltau,29614
Niedersachsen,NI,Springe,/wiki/Springe,31832
Niedersachsen,NI,Stade,/wiki/Stade,"21680, 21682–21684"
Niedersachsen,NI,Stadthagen,/wiki/Stadthagen,31655
Niedersachsen,NI,Stadtoldendorf,/wiki/Stadtoldendorf,37627
Niedersachsen,NI,Sulingen,/wiki/Sulingen,27232
Niedersachsen,NI,Syke,/wiki/Syke,28857
Niedersachsen,NI,Twistringen,/wiki/Twistringen,27239
Niedersachsen,NI,Uelzen,/wiki/Uelzen,29525
Niedersachsen,NI,Uslar,/wiki/Uslar,37170
Niedersachsen,NI,Varel,/wiki/Varel,26316
Niedersachsen,NI,Vechta,/wiki/Vechta,49377
Niedersachsen,NI,Verden,/wiki/Verden_(Aller),27283
Niedersachsen,NI,Visselhövede,/wiki/Visselh%C3%B6vede,27374
Niedersachsen,NI,Walsrode,/wiki/Walsrode,"29664, 29699"
Niedersachsen,NI,Weener,/wiki/Weener,26826
Niedersachsen,NI,Werlte,/wiki/Werlte,49757
Niedersachsen,NI,Westerstede,/wiki/Westerstede,26655
Niedersachsen,NI,Wiesmoor,/wiki/Wiesmoor,26639
Niedersachsen,NI,Wildeshausen,/wiki/Wildeshausen,27793
Niedersachsen,NI,Wilhelmshaven,/wiki/Wilhelmshaven,26382–26389
Niedersachsen,NI,Winsen,/wiki/Winsen_(Luhe),21423
Niedersachsen,NI,Wittingen,/wiki/Wittingen,"29378, 29379"
Niedersachsen,NI,Wittmund,/wiki/Wittmund,26409
Niedersachsen,NI,Wolfenbüttel,/wiki/Wolfenb%C3%BCttel,"38300, 38302, 38304"
Niedersachsen,NI,Wolfsburg,/wiki/Wolfsburg,38440–38448
Niedersachsen,NI,Wunstorf,/wiki/Wunstorf,31515
Niedersachsen,NI,Wustrow,/wiki/Wustrow_(Wendland),29462
Niedersachsen,NI,Zeven,/wiki/Zeven,27404
Rheinland-Pfalz,RP,Adenau,/wiki/Adenau,53511–53518
Rheinland-Pfalz,RP,Altenkirchen,/wiki/Altenkirchen_(Westerwald),57610
Rheinland-Pfalz,RP,Alzey,/wiki/Alzey,55232
Rheinland-Pfalz,RP,Andernach,/wiki/Andernach,56626
Rheinland-Pfalz,RP,Annweiler am Trifels,/wiki/Annweiler_am_Trifels,76855
Rheinland-Pfalz,RP,Bacharach,/wiki/Bacharach,55422
Rheinland-Pfalz,RP,Bad Bergzabern,/wiki/Bad_Bergzabern,76887
Rheinland-Pfalz,RP,Bad Breisig,/wiki/Bad_Breisig,53498
Rheinland-Pfalz,RP,Bad Dürkheim,/wiki/Bad_D%C3%BCrkheim,67098
Rheinland-Pfalz,RP,Bad Ems,/wiki/Bad_Ems,56130
Rheinland-Pfalz,RP,Bad Hönningen,/wiki/Bad_H%C3%B6nningen,53557
Rheinland-Pfalz,RP,Bad Kreuznach,/wiki/Bad_Kreuznach,"55543, 55545, "
Rheinland-Pfalz,RP,Bad Marienberg,/wiki/Bad_Marienberg_(Westerwald),56470
Rheinland-Pfalz,RP,Bad Neuenahr-Ahrweiler,/wiki/Bad_Neuenahr-Ahrweiler,53474
Rheinland-Pfalz,RP,Bad Sobernheim,/wiki/Bad_Sobernheim,55566
Rheinland-Pfalz,RP,Baumholder,/wiki/Baumholder,55774
Rheinland-Pfalz,RP,Bendorf,/wiki/Bendorf,56170
Rheinland-Pfalz,RP,Bernkastel-Kues,/wiki/Bernkastel-Kues,54470
Rheinland-Pfalz,RP,Betzdorf,/wiki/Betzdorf,57518
Rheinland-Pfalz,RP,Bingen am Rhein,/wiki/Bingen_am_Rhein,55411
Rheinland-Pfalz,RP,Birkenfeld,/wiki/Birkenfeld,55765
Rheinland-Pfalz,RP,Bitburg,/wiki/Bitburg,54634
Rheinland-Pfalz,RP,Boppard,/wiki/Boppard,56154
Rheinland-Pfalz,RP,Braubach,/wiki/Braubach,56338
Rheinland-Pfalz,RP,Cochem,/wiki/Cochem,56812
Rheinland-Pfalz,RP,Daaden,/wiki/Daaden,57567
Rheinland-Pfalz,RP,Dahn,/wiki/Dahn,66994
Rheinland-Pfalz,RP,Daun,/wiki/Daun,54550
Rheinland-Pfalz,RP,Deidesheim,/wiki/Deidesheim,67146
Rheinland-Pfalz,RP,Dierdorf,/wiki/Dierdorf,56269
Rheinland-Pfalz,RP,Diez,/wiki/Diez,65582
Rheinland-Pfalz,RP,Edenkoben,/wiki/Edenkoben,67480
Rheinland-Pfalz,RP,Eisenberg,/wiki/Eisenberg_(Pfalz),67304
Rheinland-Pfalz,RP,Emmelshausen,/wiki/Emmelshausen,56281
Rheinland-Pfalz,RP,Frankenthal,/wiki/Frankenthal_(Pfalz),67227
Rheinland-Pfalz,RP,Freinsheim,/wiki/Freinsheim,"67251, "
Rheinland-Pfalz,RP,Gau-Algesheim,/wiki/Gau-Algesheim,55435
Rheinland-Pfalz,RP,Germersheim,/wiki/Germersheim,76726
Rheinland-Pfalz,RP,Gerolstein,/wiki/Gerolstein,54568
Rheinland-Pfalz,RP,Grünstadt,/wiki/Gr%C3%BCnstadt,67269
Rheinland-Pfalz,RP,Hachenburg,/wiki/Hachenburg,57627
Rheinland-Pfalz,RP,Hagenbach,/wiki/Hagenbach,76767
Rheinland-Pfalz,RP,Herdorf,/wiki/Herdorf,57562
Rheinland-Pfalz,RP,Hermeskeil,/wiki/Hermeskeil,54411
Rheinland-Pfalz,RP,Hillesheim,/wiki/Hillesheim_(Eifel),54576
Rheinland-Pfalz,RP,Höhr-Grenzhausen,/wiki/H%C3%B6hr-Grenzhausen,56203
Rheinland-Pfalz,RP,Hornbach,/wiki/Hornbach,66500
Rheinland-Pfalz,RP,Idar-Oberstein,/wiki/Idar-Oberstein,55743
Rheinland-Pfalz,RP,Ingelheim am Rhein,/wiki/Ingelheim_am_Rhein,"55216, 55218, 55262, 55263"
Rheinland-Pfalz,RP,Kaisersesch,/wiki/Kaisersesch,56759
Rheinland-Pfalz,RP,Kaiserslautern,/wiki/Kaiserslautern,"67655, 67657, 67659, 67661, 67663"
Rheinland-Pfalz,RP,Kandel,/wiki/Kandel_(Pfalz),76870
Rheinland-Pfalz,RP,Kastellaun,/wiki/Kastellaun,56288
Rheinland-Pfalz,RP,Katzenelnbogen,/wiki/Katzenelnbogen,56368
Rheinland-Pfalz,RP,Kaub,/wiki/Kaub,56349
Rheinland-Pfalz,RP,Kirchberg,/wiki/Kirchberg_(Hunsr%C3%BCck),55481
Rheinland-Pfalz,RP,Kirchen,/wiki/Kirchen_(Sieg),57548
Rheinland-Pfalz,RP,Kirchheimbolanden,/wiki/Kirchheimbolanden,67292
Rheinland-Pfalz,RP,Kirn,/wiki/Kirn,55606
Rheinland-Pfalz,RP,Koblenz,/wiki/Koblenz,56068–56077
Rheinland-Pfalz,RP,Konz,/wiki/Konz,54329
Rheinland-Pfalz,RP,Kusel,/wiki/Kusel,66869
Rheinland-Pfalz,RP,Kyllburg,/wiki/Kyllburg,54655
Rheinland-Pfalz,RP,Lahnstein,/wiki/Lahnstein,56112
Rheinland-Pfalz,RP,Lambrecht,/wiki/Lambrecht_(Pfalz),67466
Rheinland-Pfalz,RP,Landau in der Pfalz,/wiki/Landau_in_der_Pfalz,"76829,"
Rheinland-Pfalz,RP,Landstuhl,/wiki/Landstuhl,66849
Rheinland-Pfalz,RP,Lauterecken,/wiki/Lauterecken,67742
Rheinland-Pfalz,RP,Linz am Rhein,/wiki/Linz_am_Rhein,53545
Rheinland-Pfalz,RP,Ludwigshafen am Rhein,/wiki/Ludwigshafen_am_Rhein,67059–67071
Rheinland-Pfalz,RP,Mainz,/wiki/Mainz,55116–55131
Rheinland-Pfalz,RP,Manderscheid,/wiki/Manderscheid,54531
Rheinland-Pfalz,RP,Mayen,/wiki/Mayen,"56727,"
Rheinland-Pfalz,RP,Meisenheim,/wiki/Meisenheim,55590
Rheinland-Pfalz,RP,Mendig,/wiki/Mendig,56743
Rheinland-Pfalz,RP,Montabaur,/wiki/Montabaur,56410
Rheinland-Pfalz,RP,Mülheim-Kärlich,/wiki/M%C3%BClheim-K%C3%A4rlich,56218
Rheinland-Pfalz,RP,Münstermaifeld,/wiki/M%C3%BCnstermaifeld,"56294,"
Rheinland-Pfalz,RP,Nassau,/wiki/Nassau_(Lahn),56377
Rheinland-Pfalz,RP,Nastätten,/wiki/Nast%C3%A4tten,56355
Rheinland-Pfalz,RP,Neuerburg,/wiki/Neuerburg,54673
Rheinland-Pfalz,RP,Neustadt an der Weinstraße,/wiki/Neustadt_an_der_Weinstra%C3%9Fe,"67433, 67434, 67435"
Rheinland-Pfalz,RP,Neuwied,/wiki/Neuwied,"56564, 56566, 56567"
Rheinland-Pfalz,RP,Nieder-Olm,/wiki/Nieder-Olm,55268
Rheinland-Pfalz,RP,Nierstein,/wiki/Nierstein,55283
Rheinland-Pfalz,RP,Obermoschel,/wiki/Obermoschel,67823
Rheinland-Pfalz,RP,Oberwesel,/wiki/Oberwesel,55430
Rheinland-Pfalz,RP,Oppenheim,/wiki/Oppenheim,55276
Rheinland-Pfalz,RP,Osthofen,/wiki/Osthofen,67574
Rheinland-Pfalz,RP,Otterberg,/wiki/Otterberg,67697
Rheinland-Pfalz,RP,Pirmasens,/wiki/Pirmasens,66953–66955
Rheinland-Pfalz,RP,Polch,/wiki/Polch,56751
Rheinland-Pfalz,RP,Prüm,/wiki/Pr%C3%BCm,54595
Rheinland-Pfalz,RP,Ramstein-Miesenbach,/wiki/Ramstein-Miesenbach,"66877, 66851"
Rheinland-Pfalz,RP,Ransbach-Baumbach,/wiki/Ransbach-Baumbach,56235
Rheinland-Pfalz,RP,Remagen,/wiki/Remagen,53424
Rheinland-Pfalz,RP,Rennerod,/wiki/Rennerod,56477
Rheinland-Pfalz,RP,Rheinböllen,/wiki/Rheinb%C3%B6llen,55494
Rheinland-Pfalz,RP,Rhens,/wiki/Rhens,56321
Rheinland-Pfalz,RP,Rockenhausen,/wiki/Rockenhausen,67806
Rheinland-Pfalz,RP,Rodalben,/wiki/Rodalben,66976
Rheinland-Pfalz,RP,Saarburg,/wiki/Saarburg,54439
Rheinland-Pfalz,RP,Sankt Goar,/wiki/Sankt_Goar,56329
Rheinland-Pfalz,RP,Sankt Goarshausen,/wiki/Sankt_Goarshausen,56346
Rheinland-Pfalz,RP,Schifferstadt,/wiki/Schifferstadt,67105
Rheinland-Pfalz,RP,Schweich,/wiki/Schweich,54338
Rheinland-Pfalz,RP,Selters,/wiki/Selters_(Westerwald),56242
Rheinland-Pfalz,RP,Simmern,/wiki/Simmern/Hunsr%C3%BCck,55469
Rheinland-Pfalz,RP,Sinzig,/wiki/Sinzig,53489
Rheinland-Pfalz,RP,Speicher,/wiki/Speicher_(Eifel),54662
Rheinland-Pfalz,RP,Speyer,/wiki/Speyer,67346
Rheinland-Pfalz,RP,Stromberg,/wiki/Stromberg_(Hunsr%C3%BCck),55442
Rheinland-Pfalz,RP,Traben-Trarbach,/wiki/Traben-Trarbach,56841
Rheinland-Pfalz,RP,Trier,/wiki/Trier,"54290, 54292, 54293, 54294, 54295, 54296"
Rheinland-Pfalz,RP,Ulmen,/wiki/Ulmen_(Eifel),56766
Rheinland-Pfalz,RP,Unkel,/wiki/Unkel,53572
Rheinland-Pfalz,RP,Vallendar,/wiki/Vallendar,56179
Rheinland-Pfalz,RP,Wachenheim an der Weinstraße,/wiki/Wachenheim_an_der_Weinstra%C3%9Fe,67157
Rheinland-Pfalz,RP,Waldmohr,/wiki/Waldmohr,66914
Rheinland-Pfalz,RP,Weißenthurm,/wiki/Wei%C3%9Fenthurm,56575
Rheinland-Pfalz,RP,Westerburg,/wiki/Westerburg,56457
Rheinland-Pfalz,RP,Wirges,/wiki/Wirges,56422
Rheinland-Pfalz,RP,Wissen,/wiki/Wissen_(Stadt),57537
Rheinland-Pfalz,RP,Wittlich,/wiki/Wittlich,54516
Rheinland-Pfalz,RP,Wolfstein,/wiki/Wolfstein,67752
Rheinland-Pfalz,RP,Worms,/wiki/Worms,"67547, 67549, 67550, 67551"
Rheinland-Pfalz,RP,Wörrstadt,/wiki/W%C3%B6rrstadt,55286
Rheinland-Pfalz,RP,Wörth am Rhein,/wiki/W%C3%B6rth_am_Rhein,76744
Rheinland-Pfalz,RP,Zell,/wiki/Zell_(Mosel),56856
Rheinland-Pfalz,RP,Zweibrücken,/wiki/Zweibr%C3%BCcken,66482
Thüringen,TH,Altenburg,/wiki/Altenburg,04600
Thüringen,TH,Amt Creuzburg,/wiki/Amt_Creuzburg,"99831, 99826"
Thüringen,TH,An der Schmücke,/wiki/An_der_Schm%C3%BCcke,06577
Thüringen,TH,Apolda,/wiki/Apolda,99510
Thüringen,TH,Arnstadt,/wiki/Arnstadt,99310
Thüringen,TH,Artern,/wiki/Artern,06556
Thüringen,TH,Auma-Weidatal,/wiki/Auma-Weidatal,07955
Thüringen,TH,Bad Berka,/wiki/Bad_Berka,99438
Thüringen,TH,Bad Blankenburg,/wiki/Bad_Blankenburg,07422
Thüringen,TH,Bad Frankenhausen,/wiki/Bad_Frankenhausen/Kyffh%C3%A4user,06567
Thüringen,TH,Bad Köstritz,/wiki/Bad_K%C3%B6stritz,07586
Thüringen,TH,Bad Langensalza,/wiki/Bad_Langensalza,99947
Thüringen,TH,Bad Liebenstein,/wiki/Bad_Liebenstein_(Gemeinde),36448
Thüringen,TH,Bad Lobenstein,/wiki/Bad_Lobenstein,07356
Thüringen,TH,Bad Salzungen,/wiki/Bad_Salzungen,"36433, 36469"
Thüringen,TH,Bad Sulza,/wiki/Bad_Sulza,"99518, 99510"
Thüringen,TH,Bad Tennstedt,/wiki/Bad_Tennstedt,99955
Thüringen,TH,Berga-Wünschendorf,/wiki/Berga-W%C3%BCnschendorf,"07980, 07570"
Thüringen,TH,Blankenhain,/wiki/Blankenhain,99444
Thüringen,TH,Bleicherode,/wiki/Bleicherode,99752
Thüringen,TH,Brotterode-Trusetal,/wiki/Brotterode-Trusetal,98596
Thüringen,TH,Bürgel,/wiki/B%C3%BCrgel_(Th%C3%BCringen),07616
Thüringen,TH,Clingen,/wiki/Clingen,99718
Thüringen,TH,Dingelstädt,/wiki/Dingelst%C3%A4dt,37351
Thüringen,TH,Dornburg-Camburg,/wiki/Dornburg-Camburg,"07774, "
Thüringen,TH,Ebeleben,/wiki/Ebeleben,99713
Thüringen,TH,Eisenach,/wiki/Eisenach,99817
Thüringen,TH,Eisenberg,/wiki/Eisenberg_(Th%C3%BCringen),07607
Thüringen,TH,Eisfeld,/wiki/Eisfeld,98673
Thüringen,TH,Ellrich,/wiki/Ellrich,99755
Thüringen,TH,Erfurt,/wiki/Erfurt,99084–99099
Thüringen,TH,Friedrichroda,/wiki/Friedrichroda,99894
Thüringen,TH,Gebesee,/wiki/Gebesee,99189
Thüringen,TH,Gefell,/wiki/Gefell,07926
Thüringen,TH,Geisa,/wiki/Geisa,36419
Thüringen,TH,Gera,/wiki/Gera,07545–07557
Thüringen,TH,Gößnitz,/wiki/G%C3%B6%C3%9Fnitz_(Th%C3%BCringen),04639
Thüringen,TH,Gotha,/wiki/Gotha,99867
Thüringen,TH,Gräfenthal,/wiki/Gr%C3%A4fenthal,98743
Thüringen,TH,Greiz,/wiki/Greiz,07973
Thüringen,TH,Greußen,/wiki/Greu%C3%9Fen,99718
Thüringen,TH,Großbreitenbach,/wiki/Gro%C3%9Fbreitenbach,98701
Thüringen,TH,Heilbad Heiligenstadt,/wiki/Heilbad_Heiligenstadt,37308
Thüringen,TH,Heldburg,/wiki/Heldburg,98663
Thüringen,TH,Heringen,/wiki/Heringen/Helme,99765
Thüringen,TH,Hermsdorf,/wiki/Hermsdorf_(Th%C3%BCringen),07629
Thüringen,TH,Hildburghausen,/wiki/Hildburghausen,98646
Thüringen,TH,Hirschberg,/wiki/Hirschberg_(Saale),07927
Thüringen,TH,Hohenleuben,/wiki/Hohenleuben,07958
Thüringen,TH,Ilmenau,/wiki/Ilmenau,"98693, 98694"
Thüringen,TH,Jena,/wiki/Jena,07743–07751
Thüringen,TH,Kahla,/wiki/Kahla,07768
Thüringen,TH,Kaltennordheim,/wiki/Kaltennordheim,36452
Thüringen,TH,Kölleda,/wiki/K%C3%B6lleda,99625
Thüringen,TH,Königsee,/wiki/K%C3%B6nigsee,07426
Thüringen,TH,Kranichfeld,/wiki/Kranichfeld,99446–99448
Thüringen,TH,Lauscha,/wiki/Lauscha,98724
Thüringen,TH,Lehesten,/wiki/Lehesten_(Th%C3%BCringer_Wald),07349
Thüringen,TH,Leinefelde-Worbis,/wiki/Leinefelde-Worbis,"37327, 37339"
Thüringen,TH,Leutenberg,/wiki/Leutenberg,07338
Thüringen,TH,Lucka,/wiki/Lucka,04613
Thüringen,TH,Magdala,/wiki/Magdala,99441
Thüringen,TH,Meiningen,/wiki/Meiningen,98617
Thüringen,TH,Meuselwitz,/wiki/Meuselwitz,04610
Thüringen,TH,Mühlhausen,/wiki/M%C3%BChlhausen/Th%C3%BCringen,"99974, 99976, 99998"
Thüringen,TH,Münchenbernsdorf,/wiki/M%C3%BCnchenbernsdorf,07589
Thüringen,TH,Neuhaus am Rennweg,/wiki/Neuhaus_am_Rennweg,98724
Thüringen,TH,Neumark,/wiki/Neumark_(bei_Weimar),99439
Thüringen,TH,Neustadt an der Orla,/wiki/Neustadt_an_der_Orla,07806
Thüringen,TH,Nordhausen,/wiki/Nordhausen,99734
Thüringen,TH,Nottertal-Heilinger Höhen,/wiki/Nottertal-Heilinger_H%C3%B6hen,99994
Thüringen,TH,Oberhof,/wiki/Oberhof,98559
Thüringen,TH,Ohrdruf,/wiki/Ohrdruf,99885
Thüringen,TH,Orlamünde,/wiki/Orlam%C3%BCnde,07768
Thüringen,TH,Plaue,/wiki/Plaue,99338
Thüringen,TH,Pößneck,/wiki/P%C3%B6%C3%9Fneck,07381
Thüringen,TH,Ranis,/wiki/Ranis,07389
Thüringen,TH,Rastenberg,/wiki/Rastenberg,99636
Thüringen,TH,Römhild,/wiki/R%C3%B6mhild,98630
Thüringen,TH,Ronneburg,/wiki/Ronneburg_(Th%C3%BCringen),07580
Thüringen,TH,Roßleben-Wiehe,/wiki/Ro%C3%9Fleben-Wiehe,06571
Thüringen,TH,Rudolstadt,/wiki/Rudolstadt,07407
Thüringen,TH,Ruhla,/wiki/Ruhla,99842
Thüringen,TH,Saalburg-Ebersdorf,/wiki/Saalburg-Ebersdorf,07929
Thüringen,TH,Saalfeld,/wiki/Saalfeld/Saale,07318
Thüringen,TH,Schalkau,/wiki/Schalkau,96528
Thüringen,TH,Schkölen,/wiki/Schk%C3%B6len,07619
Thüringen,TH,Schleiz,/wiki/Schleiz,07907
Thüringen,TH,Schleusingen,/wiki/Schleusingen,98553
Thüringen,TH,Schmalkalden,/wiki/Schmalkalden,98574
Thüringen,TH,Schmölln,/wiki/Schm%C3%B6lln,04626
Thüringen,TH,Schwarzatal,/wiki/Schwarzatal,98744
Thüringen,TH,Sömmerda,/wiki/S%C3%B6mmerda,99610
Thüringen,TH,Sondershausen,/wiki/Sondershausen,99706
Thüringen,TH,Sonneberg,/wiki/Sonneberg,96515
Thüringen,TH,Stadtilm,/wiki/Stadtilm,99326
Thüringen,TH,Stadtroda,/wiki/Stadtroda,07646
Thüringen,TH,Steinach,/wiki/Steinach_(Th%C3%BCringen),96523
Thüringen,TH,Steinbach-Hallenberg,/wiki/Steinbach-Hallenberg,98587
Thüringen,TH,Suhl,/wiki/Suhl,98527–98529
Thüringen,TH,Tambach-Dietharz,/wiki/Tambach-Dietharz,99897
Thüringen,TH,Tanna,/wiki/Tanna,07922
Thüringen,TH,Themar,/wiki/Themar,98660
Thüringen,TH,Treffurt,/wiki/Treffurt,99830
Thüringen,TH,Triptis,/wiki/Triptis,07819
Thüringen,TH,Ummerstadt,/wiki/Ummerstadt,98663
Thüringen,TH,Vacha,/wiki/Vacha,36404
Thüringen,TH,Waltershausen,/wiki/Waltershausen,99880
Thüringen,TH,Wasungen,/wiki/Wasungen,98634
Thüringen,TH,Weida,/wiki/Weida,07570
Thüringen,TH,Weimar,/wiki/Weimar,"99423, 99425, 99427, 99428"
Thüringen,TH,Weißensee,/wiki/Wei%C3%9Fensee_(Th%C3%BCringen),99631
Thüringen,TH,Werra-Suhl-Tal,/wiki/Werra-Suhl-Tal,99837
Thüringen,TH,Wurzbach,/wiki/Wurzbach,07343
Thüringen,TH,Zella-Mehlis,/wiki/Zella-Mehlis,98544
Thüringen,TH,Zeulenroda-Triebes,/wiki/Zeulenroda-Triebes,"07937, 07950"
Thüringen,TH,Ziegenrück,/wiki/Ziegenr%C3%BCck,07924
Brandenburg,BB,Altlandsberg,/wiki/Altlandsberg,15345
Brandenburg,BB,Angermünde,/wiki/Angerm%C3%BCnde,16278
Brandenburg,BB,Bad Belzig,/wiki/Bad_Belzig,14806
Brandenburg,BB,Bad Freienwalde,/wiki/Bad_Freienwalde_(Oder),16259
Brandenburg,BB,Bad Liebenwerda,/wiki/Bad_Liebenwerda,"04924,"
Brandenburg,BB,Bad Wilsnack,/wiki/Bad_Wilsnack,19336
Brandenburg,BB,Baruth,/wiki/Baruth/Mark,15837
Brandenburg,BB,Beelitz,/wiki/Beelitz,14547
Brandenburg,BB,Beeskow,/wiki/Beeskow,15848
Brandenburg,BB,Bernau bei Berlin,/wiki/Bernau_bei_Berlin,16321
Brandenburg,BB,Biesenthal,/wiki/Biesenthal,16359
Brandenburg,BB,Brandenburg an der Havel,/wiki/Brandenburg_an_der_Havel,14770–14776
Brandenburg,BB,Brück,/wiki/Br%C3%BCck,14822
Brandenburg,BB,Brüssow,/wiki/Br%C3%BCssow,17326
Brandenburg,BB,Buckow,/wiki/Buckow_(M%C3%A4rkische_Schweiz),15377
Brandenburg,BB,Calau,/wiki/Calau,03205
Brandenburg,BB,Cottbus,/wiki/Cottbus,03042–03055
Brandenburg,BB,Dahme,/wiki/Dahme/Mark,15936
Brandenburg,BB,Doberlug-Kirchhain,/wiki/Doberlug-Kirchhain,03253
Brandenburg,BB,Döbern,/wiki/D%C3%B6bern,03159
Brandenburg,BB,Drebkau,/wiki/Drebkau,03116
Brandenburg,BB,Eberswalde,/wiki/Eberswalde,"16225, 16227"
Brandenburg,BB,Eisenhüttenstadt,/wiki/Eisenh%C3%BCttenstadt,15890
Brandenburg,BB,Elsterwerda,/wiki/Elsterwerda,04910
Brandenburg,BB,Erkner,/wiki/Erkner,15537
Brandenburg,BB,Falkenberg,/wiki/Falkenberg/Elster,04895
Brandenburg,BB,Falkensee,/wiki/Falkensee,14612
Brandenburg,BB,Finsterwalde,/wiki/Finsterwalde,03238
Brandenburg,BB,Forst,/wiki/Forst_(Lausitz),03149
Brandenburg,BB,Frankfurt,/wiki/Frankfurt_(Oder),"15230, 15232, 15234, 15236"
Brandenburg,BB,Friedland,/wiki/Friedland_(Niederlausitz),15848
Brandenburg,BB,Friesack,/wiki/Friesack,14662
Brandenburg,BB,Fürstenberg,/wiki/F%C3%BCrstenberg/Havel,16798
Brandenburg,BB,Fürstenwalde,/wiki/F%C3%BCrstenwalde/Spree,15517
Brandenburg,BB,Gartz,/wiki/Gartz_(Oder),16307
Brandenburg,BB,Golßen,/wiki/Gol%C3%9Fen,15938
Brandenburg,BB,Gransee,/wiki/Gransee,16775
Brandenburg,BB,Großräschen,/wiki/Gro%C3%9Fr%C3%A4schen,01983
Brandenburg,BB,Guben,/wiki/Guben,03172
Brandenburg,BB,Havelsee,/wiki/Havelsee,"14778, 14798"
Brandenburg,BB,Hennigsdorf,/wiki/Hennigsdorf,16761
Brandenburg,BB,Herzberg,/wiki/Herzberg_(Elster),04916
Brandenburg,BB,Hohen Neuendorf,/wiki/Hohen_Neuendorf,"16540, 16556, 16562"
Brandenburg,BB,Joachimsthal,/wiki/Joachimsthal,16247
Brandenburg,BB,Jüterbog,/wiki/J%C3%BCterbog,14913
Brandenburg,BB,Ketzin,/wiki/Ketzin/Havel,14669
Brandenburg,BB,Königs Wusterhausen,/wiki/K%C3%B6nigs_Wusterhausen,15711–15713
Brandenburg,BB,Kremmen,/wiki/Kremmen,16766
Brandenburg,BB,Kyritz,/wiki/Kyritz,16866
Brandenburg,BB,Lauchhammer,/wiki/Lauchhammer,01979
Brandenburg,BB,Lebus,/wiki/Lebus,15326
Brandenburg,BB,Lenzen,/wiki/Lenzen_(Elbe),19309
Brandenburg,BB,Liebenwalde,/wiki/Liebenwalde,16559
Brandenburg,BB,Lieberose,/wiki/Lieberose,15868
Brandenburg,BB,Lindow,/wiki/Lindow_(Mark),16835
Brandenburg,BB,Lübben,/wiki/L%C3%BCbben_(Spreewald),15907
Brandenburg,BB,Lübbenau,/wiki/L%C3%BCbbenau/Spreewald,03222
Brandenburg,BB,Luckau,/wiki/Luckau,15926
Brandenburg,BB,Luckenwalde,/wiki/Luckenwalde,14943
Brandenburg,BB,Ludwigsfelde,/wiki/Ludwigsfelde,14974
Brandenburg,BB,Lychen,/wiki/Lychen,17279
Brandenburg,BB,Märkisch Buchholz,/wiki/M%C3%A4rkisch_Buchholz,15748
Brandenburg,BB,Meyenburg,/wiki/Meyenburg,16945
Brandenburg,BB,Mittenwalde,/wiki/Mittenwalde,15749
Brandenburg,BB,Mühlberg,/wiki/M%C3%BChlberg/Elbe,04931 
Brandenburg,BB,Müllrose,/wiki/M%C3%BCllrose,15299
Brandenburg,BB,Müncheberg,/wiki/M%C3%BCncheberg,15374
Brandenburg,BB,Nauen,/wiki/Nauen,14641
Brandenburg,BB,Neuruppin,/wiki/Neuruppin,"16816, 16818, 16827, 16833, 16835"
Brandenburg,BB,Neustadt,/wiki/Neustadt_(Dosse),16845
Brandenburg,BB,Niemegk,/wiki/Niemegk,14823
Brandenburg,BB,Oderberg,/wiki/Oderberg,16248
Brandenburg,BB,Oranienburg,/wiki/Oranienburg,16515
Brandenburg,BB,Ortrand,/wiki/Ortrand,01990
Brandenburg,BB,Peitz,/wiki/Peitz,03185
Brandenburg,BB,Perleberg,/wiki/Perleberg,19348
Brandenburg,BB,Potsdam,/wiki/Potsdam,14467–14482
Brandenburg,BB,Premnitz,/wiki/Premnitz,14727
Brandenburg,BB,Prenzlau,/wiki/Prenzlau,17291
Brandenburg,BB,Pritzwalk,/wiki/Pritzwalk,16928
Brandenburg,BB,Putlitz,/wiki/Putlitz,16949
Brandenburg,BB,Rathenow,/wiki/Rathenow,14712
Brandenburg,BB,Rheinsberg,/wiki/Rheinsberg,16818 
Brandenburg,BB,Rhinow,/wiki/Rhinow,14728
Brandenburg,BB,Ruhland,/wiki/Ruhland,01945
Brandenburg,BB,Schlieben,/wiki/Schlieben,04936
Brandenburg,BB,Schönewalde,/wiki/Sch%C3%B6newalde,04916
Brandenburg,BB,Schwarzheide,/wiki/Schwarzheide,01987
Brandenburg,BB,Schwedt,/wiki/Schwedt/Oder,16303
Brandenburg,BB,Seelow,/wiki/Seelow,15306
Brandenburg,BB,Senftenberg,/wiki/Senftenberg,01945 
Brandenburg,BB,Sonnewalde,/wiki/Sonnewalde,03249
Brandenburg,BB,Spremberg,/wiki/Spremberg,03130
Brandenburg,BB,Storkow,/wiki/Storkow_(Mark),15859
Brandenburg,BB,Strausberg,/wiki/Strausberg,15344
Brandenburg,BB,Teltow,/wiki/Teltow,14513
Brandenburg,BB,Templin,/wiki/Templin,17268
Brandenburg,BB,Teupitz,/wiki/Teupitz,15755
Brandenburg,BB,Trebbin,/wiki/Trebbin,14959
Brandenburg,BB,Treuenbrietzen,/wiki/Treuenbrietzen,14929
Brandenburg,BB,Uebigau-Wahrenbrück,/wiki/Uebigau-Wahrenbr%C3%BCck,04924 
Brandenburg,BB,Velten,/wiki/Velten,16727
Brandenburg,BB,Vetschau,/wiki/Vetschau/Spreewald,03226
Brandenburg,BB,Welzow,/wiki/Welzow,03119
Brandenburg,BB,Werder,/wiki/Werder_(Havel),14542
Brandenburg,BB,Werneuchen,/wiki/Werneuchen,16356
Brandenburg,BB,Wildau,/wiki/Wildau,15745
Brandenburg,BB,Wittenberge,/wiki/Wittenberge,19322
Brandenburg,BB,Wittstock,/wiki/Wittstock/Dosse,16909
Brandenburg,BB,Wriezen,/wiki/Wriezen,16269
Brandenburg,BB,Zehdenick,/wiki/Zehdenick,16792
Brandenburg,BB,Ziesar,/wiki/Ziesar,14793
Brandenburg,BB,Zossen,/wiki/Zossen,15806
Sachsen-Anhalt,ST,Aken,/wiki/Aken_(Elbe),"06385,"
Sachsen-Anhalt,ST,Allstedt,/wiki/Allstedt,06542
Sachsen-Anhalt,ST,Alsleben,/wiki/Alsleben_(Saale),06425
Sachsen-Anhalt,ST,Annaburg,/wiki/Annaburg,06925
Sachsen-Anhalt,ST,Arendsee,/wiki/Arendsee_(Altmark),39619
Sachsen-Anhalt,ST,Arneburg,/wiki/Arneburg,39596
Sachsen-Anhalt,ST,Arnstein,/wiki/Arnstein_(Sachsen-Anhalt),06456
Sachsen-Anhalt,ST,Aschersleben,/wiki/Aschersleben,06449
Sachsen-Anhalt,ST,Bad Bibra,/wiki/Bad_Bibra,06647
Sachsen-Anhalt,ST,Bad Dürrenberg,/wiki/Bad_D%C3%BCrrenberg,06231
Sachsen-Anhalt,ST,Bad Lauchstädt,/wiki/Bad_Lauchst%C3%A4dt,06246
Sachsen-Anhalt,ST,Bad Schmiedeberg,/wiki/Bad_Schmiedeberg,06905
Sachsen-Anhalt,ST,Ballenstedt,/wiki/Ballenstedt,06493
Sachsen-Anhalt,ST,Barby,/wiki/Barby,"39249,"
Sachsen-Anhalt,ST,Bernburg,/wiki/Bernburg_(Saale),"06406, 06392"
Sachsen-Anhalt,ST,Bismark,/wiki/Bismark_(Altmark),"39628, 39629"
Sachsen-Anhalt,ST,Bitterfeld-Wolfen,/wiki/Bitterfeld-Wolfen,"06749, 06766, 06803, 06808"
Sachsen-Anhalt,ST,Blankenburg,/wiki/Blankenburg_(Harz),06502 
Sachsen-Anhalt,ST,Braunsbedra,/wiki/Braunsbedra,"06242, "
Sachsen-Anhalt,ST,Burg,/wiki/Burg_(bei_Magdeburg),39288
Sachsen-Anhalt,ST,Calbe,/wiki/Calbe_(Saale),39240
Sachsen-Anhalt,ST,Coswig,/wiki/Coswig_(Anhalt),"06868, 06869"
Sachsen-Anhalt,ST,Dessau-Roßlau,/wiki/Dessau-Ro%C3%9Flau,"06842–06849,"
Sachsen-Anhalt,ST,Eckartsberga,/wiki/Eckartsberga,06648
Sachsen-Anhalt,ST,Egeln,/wiki/Egeln,39435
Sachsen-Anhalt,ST,Lutherstadt Eisleben,/wiki/Lutherstadt_Eisleben,06295
Sachsen-Anhalt,ST,Falkenstein,/wiki/Falkenstein/Harz,06333 
Sachsen-Anhalt,ST,Freyburg,/wiki/Freyburg_(Unstrut),06632
Sachsen-Anhalt,ST,Gardelegen,/wiki/Gardelegen,"39638, 39649"
Sachsen-Anhalt,ST,Genthin,/wiki/Genthin,39291 
Sachsen-Anhalt,ST,Gerbstedt,/wiki/Gerbstedt,06347
Sachsen-Anhalt,ST,Gommern,/wiki/Gommern,39175 
Sachsen-Anhalt,ST,Gräfenhainichen,/wiki/Gr%C3%A4fenhainichen,"06772, 06773"
Sachsen-Anhalt,ST,Gröningen,/wiki/Gr%C3%B6ningen,39397
Sachsen-Anhalt,ST,Güsten,/wiki/G%C3%BCsten,39439
Sachsen-Anhalt,ST,Halberstadt,/wiki/Halberstadt,"38820, 38822, "
Sachsen-Anhalt,ST,Haldensleben,/wiki/Haldensleben,"39340,"
Sachsen-Anhalt,ST,Halle,/wiki/Halle_(Saale),06108–06132
Sachsen-Anhalt,ST,Harzgerode,/wiki/Harzgerode,06493
Sachsen-Anhalt,ST,Havelberg,/wiki/Havelberg,39539
Sachsen-Anhalt,ST,Hecklingen,/wiki/Hecklingen,39444
Sachsen-Anhalt,ST,Hettstedt,/wiki/Hettstedt,06333
Sachsen-Anhalt,ST,Hohenmölsen,/wiki/Hohenm%C3%B6lsen,06679
Sachsen-Anhalt,ST,Ilsenburg,/wiki/Ilsenburg_(Harz),38871
Sachsen-Anhalt,ST,Jerichow,/wiki/Jerichow,39307 
Sachsen-Anhalt,ST,Jessen,/wiki/Jessen_(Elster),06917
Sachsen-Anhalt,ST,Kalbe,/wiki/Kalbe_(Milde),39624
Sachsen-Anhalt,ST,Kelbra,/wiki/Kelbra_(Kyffh%C3%A4user),06537
Sachsen-Anhalt,ST,Kemberg,/wiki/Kemberg,06901
Sachsen-Anhalt,ST,Klötze,/wiki/Kl%C3%B6tze,38486
Sachsen-Anhalt,ST,Könnern,/wiki/K%C3%B6nnern,06420
Sachsen-Anhalt,ST,Köthen,/wiki/K%C3%B6then_(Anhalt),"06366, 06369, "
Sachsen-Anhalt,ST,Kroppenstedt,/wiki/Kroppenstedt,39397
Sachsen-Anhalt,ST,Landsberg,/wiki/Landsberg_(Saalekreis),06188
Sachsen-Anhalt,ST,Laucha an der Unstrut,/wiki/Laucha_an_der_Unstrut,06636
Sachsen-Anhalt,ST,Leuna,/wiki/Leuna,06237
Sachsen-Anhalt,ST,Lützen,/wiki/L%C3%BCtzen,"06679, 06686"
Sachsen-Anhalt,ST,Magdeburg,/wiki/Magdeburg,39104–39130
Sachsen-Anhalt,ST,Mansfeld,/wiki/Mansfeld,06343
Sachsen-Anhalt,ST,Merseburg,/wiki/Merseburg,06217
Sachsen-Anhalt,ST,Möckern,/wiki/M%C3%B6ckern,39279 
Sachsen-Anhalt,ST,Mücheln,/wiki/M%C3%BCcheln_(Geiseltal),"06249,"
Sachsen-Anhalt,ST,Naumburg,/wiki/Naumburg_(Saale),"06618, 06628"
Sachsen-Anhalt,ST,Nebra,/wiki/Nebra_(Unstrut),06642
Sachsen-Anhalt,ST,Nienburg,/wiki/Nienburg_(Saale),06429
Sachsen-Anhalt,ST,Oberharz am Brocken,/wiki/Oberharz_am_Brocken,38875 
Sachsen-Anhalt,ST,Oebisfelde-Weferlingen,/wiki/Oebisfelde-Weferlingen,39343 
Sachsen-Anhalt,ST,Oranienbaum-Wörlitz,/wiki/Oranienbaum-W%C3%B6rlitz,06785
Sachsen-Anhalt,ST,Oschersleben,/wiki/Oschersleben_(Bode),39387
Sachsen-Anhalt,ST,Osterburg,/wiki/Osterburg_(Altmark),39606
Sachsen-Anhalt,ST,Osterfeld,/wiki/Osterfeld_(Sachsen-Anhalt),06721
Sachsen-Anhalt,ST,Osterwieck,/wiki/Osterwieck,38835 
Sachsen-Anhalt,ST,Quedlinburg,/wiki/Quedlinburg,"06484, 06485"
Sachsen-Anhalt,ST,Querfurt,/wiki/Querfurt,"06268,"
Sachsen-Anhalt,ST,Raguhn-Jeßnitz,/wiki/Raguhn-Je%C3%9Fnitz,"06779, 06800"
Sachsen-Anhalt,ST,Salzwedel,/wiki/Salzwedel,29410
Sachsen-Anhalt,ST,Sandau,/wiki/Sandau_(Elbe),39524
Sachsen-Anhalt,ST,Sandersdorf-Brehna,/wiki/Sandersdorf-Brehna,06792 
Sachsen-Anhalt,ST,Sangerhausen,/wiki/Sangerhausen,06526
Sachsen-Anhalt,ST,Schönebeck,/wiki/Sch%C3%B6nebeck_(Elbe),"39217, 39218"
Sachsen-Anhalt,ST,Schraplau,/wiki/Schraplau,06279
Sachsen-Anhalt,ST,Schwanebeck,/wiki/Schwanebeck,39397 
Sachsen-Anhalt,ST,Seehausen,/wiki/Seehausen_(Altmark),39615
Sachsen-Anhalt,ST,Seeland,/wiki/Seeland_(Sachsen-Anhalt),06449 
Sachsen-Anhalt,ST,Staßfurt,/wiki/Sta%C3%9Ffurt,"39418, 39443, 39446"
Sachsen-Anhalt,ST,Stendal,/wiki/Stendal,39576
Sachsen-Anhalt,ST,Stößen,/wiki/St%C3%B6%C3%9Fen,06667
Sachsen-Anhalt,ST,Südliches Anhalt,/wiki/S%C3%BCdliches_Anhalt,06369 
Sachsen-Anhalt,ST,Tangerhütte,/wiki/Tangerh%C3%BCtte,39517
Sachsen-Anhalt,ST,Tangermünde,/wiki/Tangerm%C3%BCnde,39590
Sachsen-Anhalt,ST,Teuchern,/wiki/Teuchern,06682
Sachsen-Anhalt,ST,Thale,/wiki/Thale,06502
Sachsen-Anhalt,ST,Wanzleben-Börde,/wiki/Wanzleben-B%C3%B6rde,39164
Sachsen-Anhalt,ST,Wegeleben,/wiki/Wegeleben,38828 
Sachsen-Anhalt,ST,Weißenfels,/wiki/Wei%C3%9Fenfels,"06667, 06688"
Sachsen-Anhalt,ST,Werben,/wiki/Werben_(Elbe),"39615,"
Sachsen-Anhalt,ST,Wernigerode,/wiki/Wernigerode,"38855, "
Sachsen-Anhalt,ST,Wettin-Löbejün,/wiki/Wettin-L%C3%B6bej%C3%BCn,06193
Sachsen-Anhalt,ST,Lutherstadt Wittenberg,/wiki/Lutherstadt_Wittenberg,"06886, 06888, 06889"
Sachsen-Anhalt,ST,Wolmirstedt,/wiki/Wolmirstedt,39326 
Sachsen-Anhalt,ST,Zahna-Elster,/wiki/Zahna-Elster,06895
Sachsen-Anhalt,ST,Zeitz,/wiki/Zeitz,"06711, 06712"
Sachsen-Anhalt,ST,Zerbst,/wiki/Zerbst/Anhalt,"39261,"
Sachsen-Anhalt,ST,Zörbig,/wiki/Z%C3%B6rbig,06780
Mecklenburg-Vorpommern,MV,Altentreptow,/wiki/Altentreptow,17087
Mecklenburg-Vorpommern,MV,Anklam,/wiki/Anklam,17389
Mecklenburg-Vorpommern,MV,Bad Doberan,/wiki/Bad_Doberan,18209
Mecklenburg-Vorpommern,MV,Bad Sülze,/wiki/Bad_S%C3%BClze,18334
Mecklenburg-Vorpommern,MV,Barth,/wiki/Barth,18356
Mecklenburg-Vorpommern,MV,Bergen auf Rügen,/wiki/Bergen_auf_R%C3%BCgen,18528
Mecklenburg-Vorpommern,MV,Boizenburg,/wiki/Boizenburg/Elbe,19258
Mecklenburg-Vorpommern,MV,Brüel,/wiki/Br%C3%BCel,19412
Mecklenburg-Vorpommern,MV,Burg Stargard,/wiki/Burg_Stargard,17094
Mecklenburg-Vorpommern,MV,Bützow,/wiki/B%C3%BCtzow,18246
Mecklenburg-Vorpommern,MV,Crivitz,/wiki/Crivitz,19089
Mecklenburg-Vorpommern,MV,Dargun,/wiki/Dargun,17159
Mecklenburg-Vorpommern,MV,Dassow,/wiki/Dassow,23942
Mecklenburg-Vorpommern,MV,Demmin,/wiki/Demmin,17109
Mecklenburg-Vorpommern,MV,Dömitz,/wiki/D%C3%B6mitz,19303
Mecklenburg-Vorpommern,MV,Eggesin,/wiki/Eggesin,"17367,"
Mecklenburg-Vorpommern,MV,Franzburg,/wiki/Franzburg,18461
Mecklenburg-Vorpommern,MV,Friedland,/wiki/Friedland_(Mecklenburg),17098
Mecklenburg-Vorpommern,MV,Gadebusch,/wiki/Gadebusch,19205
Mecklenburg-Vorpommern,MV,Garz,/wiki/Garz/R%C3%BCgen,18574
Mecklenburg-Vorpommern,MV,Gnoien,/wiki/Gnoien,17179
Mecklenburg-Vorpommern,MV,Goldberg,/wiki/Goldberg,19399
Mecklenburg-Vorpommern,MV,Grabow,/wiki/Grabow_(Elde),19300
Mecklenburg-Vorpommern,MV,Greifswald,/wiki/Greifswald,"17489, 17491, 17493"
Mecklenburg-Vorpommern,MV,Grevesmühlen,/wiki/Grevesm%C3%BChlen,23936
Mecklenburg-Vorpommern,MV,Grimmen,/wiki/Grimmen,18507
Mecklenburg-Vorpommern,MV,Güstrow,/wiki/G%C3%BCstrow,18273
Mecklenburg-Vorpommern,MV,Gützkow,/wiki/G%C3%BCtzkow,17506
Mecklenburg-Vorpommern,MV,Hagenow,/wiki/Hagenow,19230
Mecklenburg-Vorpommern,MV,Jarmen,/wiki/Jarmen,17126
Mecklenburg-Vorpommern,MV,Klütz,/wiki/Kl%C3%BCtz,"23948,"
Mecklenburg-Vorpommern,MV,Krakow am See,/wiki/Krakow_am_See,18292
Mecklenburg-Vorpommern,MV,Kröpelin,/wiki/Kr%C3%B6pelin,18236
Mecklenburg-Vorpommern,MV,Kühlungsborn,/wiki/K%C3%BChlungsborn,18225
Mecklenburg-Vorpommern,MV,Laage,/wiki/Laage,18299
Mecklenburg-Vorpommern,MV,Lassan,/wiki/Lassan,17440
Mecklenburg-Vorpommern,MV,Loitz,/wiki/Loitz,17121
Mecklenburg-Vorpommern,MV,Lübtheen,/wiki/L%C3%BCbtheen,19249
Mecklenburg-Vorpommern,MV,Lübz,/wiki/L%C3%BCbz,19386
Mecklenburg-Vorpommern,MV,Ludwigslust,/wiki/Ludwigslust,19288
Mecklenburg-Vorpommern,MV,Malchin,/wiki/Malchin,17139
Mecklenburg-Vorpommern,MV,Malchow,/wiki/Malchow,17213
Mecklenburg-Vorpommern,MV,Marlow,/wiki/Marlow,18337
Mecklenburg-Vorpommern,MV,Mirow,/wiki/Mirow,17252
Mecklenburg-Vorpommern,MV,Neubrandenburg,/wiki/Neubrandenburg,"17033, 17034, 17036"
Mecklenburg-Vorpommern,MV,Neubukow,/wiki/Neubukow,18233
Mecklenburg-Vorpommern,MV,Neukalen,/wiki/Neukalen,17154
Mecklenburg-Vorpommern,MV,Neukloster,/wiki/Neukloster,23992
Mecklenburg-Vorpommern,MV,Neustadt-Glewe,/wiki/Neustadt-Glewe,19306
Mecklenburg-Vorpommern,MV,Neustrelitz,/wiki/Neustrelitz,17235
Mecklenburg-Vorpommern,MV,Parchim,/wiki/Parchim,"19370, 19374"
Mecklenburg-Vorpommern,MV,Pasewalk,/wiki/Pasewalk,17309
Mecklenburg-Vorpommern,MV,Penkun,/wiki/Penkun,17328
Mecklenburg-Vorpommern,MV,Penzlin,/wiki/Penzlin,17217
Mecklenburg-Vorpommern,MV,Plau am See,/wiki/Plau_am_See,19395
Mecklenburg-Vorpommern,MV,Putbus,/wiki/Putbus,18581
Mecklenburg-Vorpommern,MV,Rehna,/wiki/Rehna,19217
Mecklenburg-Vorpommern,MV,Rerik,/wiki/Rerik,18230
Mecklenburg-Vorpommern,MV,Ribnitz-Damgarten,/wiki/Ribnitz-Damgarten,18311
Mecklenburg-Vorpommern,MV,Richtenberg,/wiki/Richtenberg,18461
Mecklenburg-Vorpommern,MV,Röbel,/wiki/R%C3%B6bel/M%C3%BCritz,17207
Mecklenburg-Vorpommern,MV,Rostock,/wiki/Rostock,"18055, 18057, 18059,"
Mecklenburg-Vorpommern,MV,Sassnitz,/wiki/Sassnitz,"18540, 18546"
Mecklenburg-Vorpommern,MV,Schönberg,/wiki/Sch%C3%B6nberg_(Mecklenburg),23923
Mecklenburg-Vorpommern,MV,Schwaan,/wiki/Schwaan,18258
Mecklenburg-Vorpommern,MV,Schwerin,/wiki/Schwerin,"19053, 19055, "
Mecklenburg-Vorpommern,MV,Stavenhagen,/wiki/Stavenhagen,17153
Mecklenburg-Vorpommern,MV,Sternberg,/wiki/Sternberg,19406
Mecklenburg-Vorpommern,MV,Stralsund,/wiki/Stralsund,"18435, 18437, 18439"
Mecklenburg-Vorpommern,MV,Strasburg,/wiki/Strasburg_(Uckermark),17335
Mecklenburg-Vorpommern,MV,Tessin,/wiki/Tessin_(bei_Rostock),18195
Mecklenburg-Vorpommern,MV,Teterow,/wiki/Teterow,17166
Mecklenburg-Vorpommern,MV,Torgelow,/wiki/Torgelow,"17358,"
Mecklenburg-Vorpommern,MV,Tribsees,/wiki/Tribsees,18465
Mecklenburg-Vorpommern,MV,Ueckermünde,/wiki/Ueckerm%C3%BCnde,17373
Mecklenburg-Vorpommern,MV,Usedom,/wiki/Usedom_(Stadt),17406
Mecklenburg-Vorpommern,MV,Waren,/wiki/Waren_(M%C3%BCritz),17192
Mecklenburg-Vorpommern,MV,Warin,/wiki/Warin,19417
Mecklenburg-Vorpommern,MV,Wesenberg,/wiki/Wesenberg_(Mecklenburg),17255
Mecklenburg-Vorpommern,MV,Wismar,/wiki/Wismar,"23966, 23968, 23970"
Mecklenburg-Vorpommern,MV,Wittenburg,/wiki/Wittenburg,19243
Mecklenburg-Vorpommern,MV,Woldegk,/wiki/Woldegk,17348
Mecklenburg-Vorpommern,MV,Wolgast,/wiki/Wolgast,17438
Mecklenburg-Vorpommern,MV,Zarrentin am Schaalsee,/wiki/Zarrentin_am_Schaalsee,19246
Schleswig-Holstein,SH,Ahrensburg,/wiki/Ahrensburg,22926
Schleswig-Holstein,SH,Arnis,/wiki/Arnis,24399
Schleswig-Holstein,SH,Bad Bramstedt,/wiki/Bad_Bramstedt,24576
Schleswig-Holstein,SH,Bad Oldesloe,/wiki/Bad_Oldesloe,23843
Schleswig-Holstein,SH,Bad Schwartau,/wiki/Bad_Schwartau,23611
Schleswig-Holstein,SH,Bad Segeberg,/wiki/Bad_Segeberg,23795
Schleswig-Holstein,SH,Bargteheide,/wiki/Bargteheide,22941
Schleswig-Holstein,SH,Barmstedt,/wiki/Barmstedt,25355
Schleswig-Holstein,SH,Bredstedt,/wiki/Bredstedt,25821
Schleswig-Holstein,SH,Brunsbüttel,/wiki/Brunsb%C3%BCttel,25541
Schleswig-Holstein,SH,Büdelsdorf,/wiki/B%C3%BCdelsdorf,24782
Schleswig-Holstein,SH,Eckernförde,/wiki/Eckernf%C3%B6rde,24340
Schleswig-Holstein,SH,Elmshorn,/wiki/Elmshorn,25335–25337
Schleswig-Holstein,SH,Eutin,/wiki/Eutin,23701
Schleswig-Holstein,SH,Fehmarn,/wiki/Fehmarn,23769
Schleswig-Holstein,SH,Flensburg,/wiki/Flensburg,24937–24944
Schleswig-Holstein,SH,Friedrichstadt,/wiki/Friedrichstadt,25840
Schleswig-Holstein,SH,Garding,/wiki/Garding,25836
Schleswig-Holstein,SH,Geesthacht,/wiki/Geesthacht,21502
Schleswig-Holstein,SH,Glinde,/wiki/Glinde,21509
Schleswig-Holstein,SH,Glücksburg,/wiki/Gl%C3%BCcksburg_(Ostsee),24960
Schleswig-Holstein,SH,Glückstadt,/wiki/Gl%C3%BCckstadt,25348
Schleswig-Holstein,SH,Heide,/wiki/Heide_(Holstein),25746
Schleswig-Holstein,SH,Heiligenhafen,/wiki/Heiligenhafen,23774
Schleswig-Holstein,SH,Husum,/wiki/Husum,25813
Schleswig-Holstein,SH,Itzehoe,/wiki/Itzehoe,25524
Schleswig-Holstein,SH,Kaltenkirchen,/wiki/Kaltenkirchen,24568
Schleswig-Holstein,SH,Kappeln,/wiki/Kappeln,"24376, "
Schleswig-Holstein,SH,Kellinghusen,/wiki/Kellinghusen,25548
Schleswig-Holstein,SH,Kiel,/wiki/Kiel,"24103–24118,"
Schleswig-Holstein,SH,Krempe,/wiki/Krempe_(Steinburg),25361
Schleswig-Holstein,SH,Lauenburg,/wiki/Lauenburg/Elbe,21481
Schleswig-Holstein,SH,Lübeck,/wiki/L%C3%BCbeck,"23552–23570, 23627, "
Schleswig-Holstein,SH,Lütjenburg,/wiki/L%C3%BCtjenburg,24321
Schleswig-Holstein,SH,Marne,/wiki/Marne_(Holstein),25709
Schleswig-Holstein,SH,Meldorf,/wiki/Meldorf,25704
Schleswig-Holstein,SH,Mölln,/wiki/M%C3%B6lln,23879
Schleswig-Holstein,SH,Neumünster,/wiki/Neum%C3%BCnster,"24534, 24536, 24537, 24539"
Schleswig-Holstein,SH,Neustadt in Holstein,/wiki/Neustadt_in_Holstein,23730
Schleswig-Holstein,SH,Niebüll,/wiki/Nieb%C3%BCll,25899
Schleswig-Holstein,SH,Norderstedt,/wiki/Norderstedt,"22844, 22846, 22848, 22850, 22851"
Schleswig-Holstein,SH,Nortorf,/wiki/Nortorf,24589
Schleswig-Holstein,SH,Oldenburg in Holstein,/wiki/Oldenburg_in_Holstein,23758
Schleswig-Holstein,SH,Pinneberg,/wiki/Pinneberg,25421
Schleswig-Holstein,SH,Plön,/wiki/Pl%C3%B6n,24306
Schleswig-Holstein,SH,Preetz,/wiki/Preetz,24211
Schleswig-Holstein,SH,Quickborn,/wiki/Quickborn,25451
Schleswig-Holstein,SH,Ratzeburg,/wiki/Ratzeburg,23909
Schleswig-Holstein,SH,Reinbek,/wiki/Reinbek,21465
Schleswig-Holstein,SH,Reinfeld,/wiki/Reinfeld_(Holstein),23854–23858
Schleswig-Holstein,SH,Rendsburg,/wiki/Rendsburg,24768
Schleswig-Holstein,SH,Schenefeld,/wiki/Schenefeld_(Kreis_Pinneberg),22869
Schleswig-Holstein,SH,Schleswig,/wiki/Schleswig,24837
Schleswig-Holstein,SH,Schwarzenbek,/wiki/Schwarzenbek,21493
Schleswig-Holstein,SH,Schwentinental,/wiki/Schwentinental,"24222, 24223"
Schleswig-Holstein,SH,Tönning,/wiki/T%C3%B6nning,25832
Schleswig-Holstein,SH,Tornesch,/wiki/Tornesch,25436
Schleswig-Holstein,SH,Uetersen,/wiki/Uetersen,25436
Schleswig-Holstein,SH,Wahlstedt,/wiki/Wahlstedt,23812
Schleswig-Holstein,SH,Wedel,/wiki/Wedel,22880
Schleswig-Holstein,SH,Wesselburen,/wiki/Wesselburen,25764
Schleswig-Holstein,SH,Wilster,/wiki/Wilster,25554
Schleswig-Holstein,SH,Wyk auf Föhr,/wiki/Wyk_auf_F%C3%B6hr,25938
Saarland,SL,Bexbach,/wiki/Bexbach,66441–66450
Saarland,SL,Blieskastel,/wiki/Blieskastel,66440
Saarland,SL,Dillingen,/wiki/Dillingen/Saar,66763
Saarland,SL,Friedrichsthal,/wiki/Friedrichsthal_(Saar),66299
Saarland,SL,Homburg,/wiki/Homburg,"66424, 66421 (Universitätsklinikum des Saarlandes)"
Saarland,SL,Lebach,/wiki/Lebach,66822
Saarland,SL,Merzig,/wiki/Merzig,66651–66663
Saarland,SL,Neunkirchen,/wiki/Neunkirchen_(Saar),66538–66540
Saarland,SL,Ottweiler,/wiki/Ottweiler,66564
Saarland,SL,Püttlingen,/wiki/P%C3%BCttlingen,66346
Saarland,SL,Saarbrücken,/wiki/Saarbr%C3%BCcken,66111–66133
Saarland,SL,Saarlouis,/wiki/Saarlouis,66740
Saarland,SL,St. Ingbert,/wiki/St._Ingbert,66386
Saarland,SL,St. Wendel,/wiki/St._Wendel,66606
Saarland,SL,Sulzbach,/wiki/Sulzbach/Saar,66280
Saarland,SL,Völklingen,/wiki/V%C3%B6lklingen,66333
Saarland,SL,Wadern,/wiki/Wadern,66687
Bremen,HB,Bremen,/wiki/Bremen,28195–28779
Bremen,HB,Bremerhaven,/wiki/Bremerhaven,27568–27580
Berlin,BE,Berlin,/wiki/Berlin,10115–14199
Hamburg,HH,Hamburg,/wiki/Hamburg,"20095–21149,"
